{"type":"FeatureCollection","name":"Lotes Fenologia","source":"completo.geojson normalizado contra BASE DE DATOS","stats":{"lotesActivos":253,"zonasReferencia":1,"poligonosSinCodigoOmitidos":8,"featuresOriginales":303,"featuresNormalizadas":254},"features":[{"type":"Feature","properties":{"LOTE":"CACAO","CAMPO":"","FUNDO":"","MODULO":"","ACTIVO":false,"PIEZAS":1,"TIPO":"REFERENCIA"},"geometry":{"type":"Polygon","coordinates":[[[-79.727755,-6.230325],[-79.724613,-6.229245],[-79.724518,-6.226732],[-79.728856,-6.224691],[-79.730416,-6.227342],[-79.727755,-6.230325]]]}},{"type":"Feature","properties":{"CAMPO":"MOTUPE","FUNDO":"CHOLOQUE","MODULO":"M02","LOTE":"M02T03-15","ACTIVO":true,"PIEZAS":1,"TIPO":"LOTE"},"geometry":{"type":"Polygon","coordinates":[[[-79.71635,-6.181629],[-79.71334,-6.181956],[-79.712553,-6.184245],[-79.716046,-6.184954],[-79.71635,-6.181629]]]}},{"type":"Feature","properties":{"CAMPO":"MOTUPE","FUNDO":"CHOLOQUE","MODULO":"M02","LOTE":"M02T03-16","ACTIVO":true,"PIEZAS":1,"TIPO":"LOTE"},"geometry":{"type":"Polygon","coordinates":[[[-79.71334,-6.181956],[-79.710586,-6.18219],[-79.709804,-6.18491],[-79.712553,-6.184245],[-79.71334,-6.181956]]]}},{"type":"Feature","properties":{"CAMPO":"MOTUPE","FUNDO":"CHOLOQUE","MODULO":"M02","LOTE":"M02T03-17","ACTIVO":true,"PIEZAS":1,"TIPO":"LOTE"},"geometry":{"type":"Polygon","coordinates":[[[-79.710586,-6.18219],[-79.707847,-6.182404],[-79.70717,-6.185516],[-79.709804,-6.18491],[-79.710586,-6.18219]]]}},{"type":"Feature","properties":{"CAMPO":"MOTUPE","FUNDO":"CHOLOQUE","MODULO":"M02","LOTE":"M02T03-18","ACTIVO":true,"PIEZAS":1,"TIPO":"LOTE"},"geometry":{"type":"Polygon","coordinates":[[[-79.707847,-6.182404],[-79.705444,-6.182577],[-79.704667,-6.186082],[-79.70717,-6.185516],[-79.707847,-6.182404]]]}},{"type":"Feature","properties":{"CAMPO":"MOTUPE","FUNDO":"CHOLOQUE","MODULO":"M02","LOTE":"M02T03-19","ACTIVO":true,"PIEZAS":1,"TIPO":"LOTE"},"geometry":{"type":"Polygon","coordinates":[[[-79.705444,-6.182577],[-79.70323,-6.182755],[-79.702793,-6.186531],[-79.704667,-6.186082],[-79.705444,-6.182577]]]}},{"type":"Feature","properties":{"CAMPO":"MOTUPE","FUNDO":"MERCEDES","MODULO":"M03","LOTE":"M03T01-01","ACTIVO":true,"PIEZAS":1,"TIPO":"LOTE"},"geometry":{"type":"Polygon","coordinates":[[[-79.714735,-6.185586],[-79.716046,-6.184954],[-79.712553,-6.184245],[-79.709804,-6.18491],[-79.70717,-6.185516],[-79.704667,-6.186082],[-79.702793,-6.186531],[-79.703057,-6.188907],[-79.706615,-6.187855],[-79.710072,-6.18702],[-79.713657,-6.186271],[-79.714735,-6.185586]]]}},{"type":"Feature","properties":{"CAMPO":"MOTUPE","FUNDO":"MERCEDES","MODULO":"M03","LOTE":"M03T01-02","ACTIVO":true,"PIEZAS":1,"TIPO":"LOTE"},"geometry":{"type":"Polygon","coordinates":[[[-79.713657,-6.186271],[-79.710072,-6.18702],[-79.706615,-6.187855],[-79.703057,-6.188907],[-79.703237,-6.191197],[-79.706922,-6.190047],[-79.710475,-6.189107],[-79.714063,-6.188243],[-79.713657,-6.186271]]]}},{"type":"Feature","properties":{"CAMPO":"MOTUPE","FUNDO":"MERCEDES","MODULO":"M03","LOTE":"M03T01-03","ACTIVO":true,"PIEZAS":1,"TIPO":"LOTE"},"geometry":{"type":"Polygon","coordinates":[[[-79.714063,-6.188243],[-79.710475,-6.189107],[-79.706922,-6.190047],[-79.703237,-6.191197],[-79.703403,-6.193422],[-79.707238,-6.192177],[-79.710821,-6.191134],[-79.714487,-6.190139],[-79.714063,-6.188243]]]}},{"type":"Feature","properties":{"CAMPO":"MOTUPE","FUNDO":"MERCEDES","MODULO":"M03","LOTE":"M03T01-04","ACTIVO":true,"PIEZAS":1,"TIPO":"LOTE"},"geometry":{"type":"Polygon","coordinates":[[[-79.714487,-6.190139],[-79.710821,-6.191134],[-79.707238,-6.192177],[-79.703403,-6.193422],[-79.703556,-6.195538],[-79.707518,-6.194207],[-79.71121,-6.193015],[-79.714921,-6.191938],[-79.714487,-6.190139]]]}},{"type":"Feature","properties":{"CAMPO":"MOTUPE","FUNDO":"MERCEDES","MODULO":"M03","LOTE":"M03T01-05","ACTIVO":true,"PIEZAS":1,"TIPO":"LOTE"},"geometry":{"type":"Polygon","coordinates":[[[-79.714921,-6.191938],[-79.71121,-6.193015],[-79.707518,-6.194207],[-79.703556,-6.195538],[-79.70368,-6.197786],[-79.707787,-6.196354],[-79.71162,-6.195027],[-79.715379,-6.193884],[-79.714921,-6.191938]]]}},{"type":"Feature","properties":{"CAMPO":"MOTUPE","FUNDO":"MERCEDES","MODULO":"M03","LOTE":"M03T01-06","ACTIVO":true,"PIEZAS":1,"TIPO":"LOTE"},"geometry":{"type":"Polygon","coordinates":[[[-79.715379,-6.193884],[-79.71162,-6.195027],[-79.707787,-6.196354],[-79.70368,-6.197786],[-79.703795,-6.19977],[-79.708054,-6.198241],[-79.712038,-6.196838],[-79.715817,-6.195691],[-79.715379,-6.193884]]]}},{"type":"Feature","properties":{"CAMPO":"MOTUPE","FUNDO":"MERCEDES","MODULO":"M03","LOTE":"M03T01-07","ACTIVO":true,"PIEZAS":1,"TIPO":"LOTE"},"geometry":{"type":"Polygon","coordinates":[[[-79.715817,-6.195691],[-79.712038,-6.196838],[-79.708054,-6.198241],[-79.703795,-6.19977],[-79.703918,-6.201785],[-79.708331,-6.200196],[-79.712443,-6.198767],[-79.716291,-6.197596],[-79.715817,-6.195691]]]}},{"type":"Feature","properties":{"CAMPO":"MOTUPE","FUNDO":"MERCEDES","MODULO":"M03","LOTE":"M03T01-08","ACTIVO":true,"PIEZAS":1,"TIPO":"LOTE"},"geometry":{"type":"Polygon","coordinates":[[[-79.716291,-6.197596],[-79.712443,-6.198767],[-79.708331,-6.200196],[-79.703918,-6.201785],[-79.704039,-6.203834],[-79.708623,-6.202151],[-79.712836,-6.200689],[-79.716803,-6.199461],[-79.716291,-6.197596]]]}},{"type":"Feature","properties":{"CAMPO":"MOTUPE","FUNDO":"NARCISO","MODULO":"M03","LOTE":"M03T02-09","ACTIVO":true,"PIEZAS":1,"TIPO":"LOTE"},"geometry":{"type":"Polygon","coordinates":[[[-79.716803,-6.199461],[-79.712836,-6.200689],[-79.708623,-6.202151],[-79.704039,-6.203834],[-79.704141,-6.205861],[-79.708874,-6.204147],[-79.713253,-6.202582],[-79.71727,-6.201334],[-79.716803,-6.199461]]]}},{"type":"Feature","properties":{"CAMPO":"MOTUPE","FUNDO":"NARCISO","MODULO":"M03","LOTE":"M03T02-10","ACTIVO":true,"PIEZAS":1,"TIPO":"LOTE"},"geometry":{"type":"Polygon","coordinates":[[[-79.71727,-6.201334],[-79.713253,-6.202582],[-79.708874,-6.204147],[-79.704141,-6.205861],[-79.704244,-6.207945],[-79.709167,-6.206126],[-79.71368,-6.204557],[-79.717753,-6.203207],[-79.71727,-6.201334]]]}},{"type":"Feature","properties":{"CAMPO":"MOTUPE","FUNDO":"NARCISO","MODULO":"M03","LOTE":"M03T02-11","ACTIVO":true,"PIEZAS":1,"TIPO":"LOTE"},"geometry":{"type":"Polygon","coordinates":[[[-79.717753,-6.203207],[-79.71368,-6.204557],[-79.709167,-6.206126],[-79.704244,-6.207945],[-79.704333,-6.209972],[-79.709414,-6.208153],[-79.714113,-6.206522],[-79.718265,-6.205123],[-79.717753,-6.203207]]]}},{"type":"Feature","properties":{"CAMPO":"MOTUPE","FUNDO":"NARCISO","MODULO":"M03","LOTE":"M03T02-12","ACTIVO":true,"PIEZAS":1,"TIPO":"LOTE"},"geometry":{"type":"Polygon","coordinates":[[[-79.718265,-6.205123],[-79.714113,-6.206522],[-79.709414,-6.208153],[-79.704333,-6.209972],[-79.704451,-6.212043],[-79.709681,-6.210106],[-79.714531,-6.208438],[-79.718755,-6.207096],[-79.718265,-6.205123]]]}},{"type":"Feature","properties":{"CAMPO":"MOTUPE","FUNDO":"NARCISO","MODULO":"M03","LOTE":"M03T02-13","ACTIVO":true,"PIEZAS":1,"TIPO":"LOTE"},"geometry":{"type":"Polygon","coordinates":[[[-79.718755,-6.207096],[-79.714531,-6.208438],[-79.709681,-6.210106],[-79.704451,-6.212043],[-79.704548,-6.214021],[-79.709971,-6.212083],[-79.714955,-6.210358],[-79.719247,-6.208942],[-79.718755,-6.207096]]]}},{"type":"Feature","properties":{"CAMPO":"MOTUPE","FUNDO":"NARCISO","MODULO":"M03","LOTE":"M03T02-14","ACTIVO":true,"PIEZAS":1,"TIPO":"LOTE"},"geometry":{"type":"Polygon","coordinates":[[[-79.719247,-6.208942],[-79.714955,-6.210358],[-79.709971,-6.212083],[-79.704548,-6.214021],[-79.70464,-6.216041],[-79.710226,-6.214026],[-79.715396,-6.212321],[-79.719733,-6.210878],[-79.719247,-6.208942]]]}},{"type":"Feature","properties":{"CAMPO":"MOTUPE","FUNDO":"NARCISO","MODULO":"M03","LOTE":"M03T02-15","ACTIVO":true,"PIEZAS":1,"TIPO":"LOTE"},"geometry":{"type":"Polygon","coordinates":[[[-79.719733,-6.210878],[-79.715396,-6.212321],[-79.710226,-6.214026],[-79.70464,-6.216041],[-79.704722,-6.21796],[-79.710461,-6.215933],[-79.715802,-6.214214],[-79.720253,-6.212761],[-79.719733,-6.210878]]]}},{"type":"Feature","properties":{"CAMPO":"MOTUPE","FUNDO":"NARCISO","MODULO":"M03","LOTE":"M03T02-16","ACTIVO":true,"PIEZAS":1,"TIPO":"LOTE"},"geometry":{"type":"Polygon","coordinates":[[[-79.720253,-6.212761],[-79.715802,-6.214214],[-79.710461,-6.215933],[-79.704722,-6.21796],[-79.704798,-6.21987],[-79.710729,-6.217822],[-79.716237,-6.21611],[-79.720762,-6.21463],[-79.720253,-6.212761]]]}},{"type":"Feature","properties":{"CAMPO":"MOTUPE","FUNDO":"NARCISO","MODULO":"M03","LOTE":"M03T02-17","ACTIVO":true,"PIEZAS":1,"TIPO":"LOTE"},"geometry":{"type":"Polygon","coordinates":[[[-79.720762,-6.21463],[-79.716237,-6.21611],[-79.710729,-6.217822],[-79.704798,-6.21987],[-79.704868,-6.221779],[-79.711009,-6.219692],[-79.716681,-6.217967],[-79.721267,-6.216482],[-79.720762,-6.21463]]]}},{"type":"Feature","properties":{"CAMPO":"MOTUPE","FUNDO":"CUADRADO","MODULO":"M03","LOTE":"M03T03-18","ACTIVO":true,"PIEZAS":1,"TIPO":"LOTE"},"geometry":{"type":"Polygon","coordinates":[[[-79.721267,-6.216482],[-79.716681,-6.217967],[-79.711009,-6.219692],[-79.704868,-6.221779],[-79.704951,-6.223884],[-79.711255,-6.221693],[-79.717133,-6.219875],[-79.721784,-6.21843],[-79.721267,-6.216482]]]}},{"type":"Feature","properties":{"CAMPO":"MOTUPE","FUNDO":"CUADRADO","MODULO":"M03","LOTE":"M03T03-19","ACTIVO":true,"PIEZAS":1,"TIPO":"LOTE"},"geometry":{"type":"Polygon","coordinates":[[[-79.721784,-6.21843],[-79.717133,-6.219875],[-79.711255,-6.221693],[-79.704951,-6.223884],[-79.705017,-6.225878],[-79.711503,-6.223611],[-79.717563,-6.221788],[-79.722317,-6.220278],[-79.721784,-6.21843]]]}},{"type":"Feature","properties":{"CAMPO":"MOTUPE","FUNDO":"CUADRADO","MODULO":"M03","LOTE":"M03T03-20","ACTIVO":true,"PIEZAS":1,"TIPO":"LOTE"},"geometry":{"type":"Polygon","coordinates":[[[-79.722317,-6.220278],[-79.717563,-6.221788],[-79.711503,-6.223611],[-79.705017,-6.225878],[-79.705072,-6.227795],[-79.711764,-6.225446],[-79.718026,-6.223635],[-79.722795,-6.222104],[-79.722317,-6.220278]]]}},{"type":"Feature","properties":{"CAMPO":"MOTUPE","FUNDO":"CUADRADO","MODULO":"M03","LOTE":"M03T03-21","ACTIVO":true,"PIEZAS":1,"TIPO":"LOTE"},"geometry":{"type":"Polygon","coordinates":[[[-79.722795,-6.222104],[-79.718026,-6.223635],[-79.711764,-6.225446],[-79.705072,-6.227795],[-79.705126,-6.229698],[-79.712034,-6.227337],[-79.718465,-6.2255],[-79.723287,-6.223951],[-79.722795,-6.222104]]]}},{"type":"Feature","properties":{"CAMPO":"MOTUPE","FUNDO":"CUADRADO","MODULO":"M03","LOTE":"M03T03-22","ACTIVO":true,"PIEZAS":1,"TIPO":"LOTE"},"geometry":{"type":"Polygon","coordinates":[[[-79.723287,-6.223951],[-79.718465,-6.2255],[-79.712034,-6.227337],[-79.705126,-6.229698],[-79.705179,-6.23163],[-79.712286,-6.229191],[-79.718902,-6.22736],[-79.723806,-6.22582],[-79.723287,-6.223951]]]}},{"type":"Feature","properties":{"CAMPO":"MOTUPE","FUNDO":"CUADRADO","MODULO":"M03","LOTE":"M03T03-23","ACTIVO":true,"PIEZAS":1,"TIPO":"LOTE"},"geometry":{"type":"Polygon","coordinates":[[[-79.723806,-6.22582],[-79.718902,-6.22736],[-79.712286,-6.229191],[-79.705179,-6.23163],[-79.705222,-6.233445],[-79.71253,-6.231005],[-79.719347,-6.229144],[-79.724316,-6.227664],[-79.723806,-6.22582]]]}},{"type":"Feature","properties":{"CAMPO":"MOTUPE","FUNDO":"CUADRADO","MODULO":"M03","LOTE":"M03T03-24","ACTIVO":true,"PIEZAS":1,"TIPO":"LOTE"},"geometry":{"type":"Polygon","coordinates":[[[-79.724316,-6.227664],[-79.719347,-6.229144],[-79.71253,-6.231005],[-79.705222,-6.233445],[-79.705263,-6.235267],[-79.712799,-6.232842],[-79.719785,-6.230923],[-79.724815,-6.229468],[-79.724316,-6.227664]]]}},{"type":"Feature","properties":{"CAMPO":"MOTUPE","FUNDO":"CUADRADO","MODULO":"M03","LOTE":"M03T03-25","ACTIVO":true,"PIEZAS":1,"TIPO":"LOTE"},"geometry":{"type":"Polygon","coordinates":[[[-79.724815,-6.229468],[-79.719785,-6.230923],[-79.712799,-6.232842],[-79.705263,-6.235267],[-79.705308,-6.237119],[-79.713055,-6.234645],[-79.720238,-6.232721],[-79.725311,-6.23128],[-79.724815,-6.229468]]]}},{"type":"Feature","properties":{"CAMPO":"MOTUPE","FUNDO":"CUADRADO","MODULO":"M03","LOTE":"M03T03-26","ACTIVO":true,"PIEZAS":1,"TIPO":"LOTE"},"geometry":{"type":"Polygon","coordinates":[[[-79.725311,-6.23128],[-79.720238,-6.232721],[-79.713055,-6.234645],[-79.705308,-6.237119],[-79.70535,-6.238858],[-79.71331,-6.236379],[-79.720671,-6.234507],[-79.72581,-6.233092],[-79.725311,-6.23128]]]}},{"type":"Feature","properties":{"CAMPO":"MOTUPE","FUNDO":"PALACIOS","MODULO":"M03","LOTE":"M03T04-27","ACTIVO":true,"PIEZAS":1,"TIPO":"LOTE"},"geometry":{"type":"Polygon","coordinates":[[[-79.72581,-6.233092],[-79.720671,-6.234507],[-79.71331,-6.236379],[-79.70535,-6.238858],[-79.705392,-6.240615],[-79.713561,-6.238222],[-79.721119,-6.236304],[-79.726316,-6.234928],[-79.72581,-6.233092]]]}},{"type":"Feature","properties":{"CAMPO":"MOTUPE","FUNDO":"PALACIOS","MODULO":"M03","LOTE":"M03T04-28","ACTIVO":true,"PIEZAS":1,"TIPO":"LOTE"},"geometry":{"type":"Polygon","coordinates":[[[-79.726316,-6.234928],[-79.721119,-6.236304],[-79.713561,-6.238222],[-79.705392,-6.240615],[-79.705427,-6.242331],[-79.713808,-6.23998],[-79.721547,-6.238104],[-79.726824,-6.23673],[-79.726316,-6.234928]]]}},{"type":"Feature","properties":{"CAMPO":"MOTUPE","FUNDO":"PALACIOS","MODULO":"M03","LOTE":"M03T04-32","ACTIVO":true,"PIEZAS":1,"TIPO":"LOTE"},"geometry":{"type":"Polygon","coordinates":[[[-79.728283,-6.242045],[-79.723131,-6.243397],[-79.715022,-6.245194],[-79.705508,-6.247489],[-79.705533,-6.249244],[-79.715277,-6.246924],[-79.723553,-6.245178],[-79.728767,-6.243853],[-79.728283,-6.242045]]]}},{"type":"Feature","properties":{"CAMPO":"MOTUPE","FUNDO":"PALACIOS","MODULO":"M03","LOTE":"M03T05-29","ACTIVO":true,"PIEZAS":1,"TIPO":"LOTE"},"geometry":{"type":"Polygon","coordinates":[[[-79.726824,-6.23673],[-79.721547,-6.238104],[-79.713808,-6.23998],[-79.705427,-6.242331],[-79.705456,-6.244047],[-79.714044,-6.241688],[-79.721959,-6.239923],[-79.727341,-6.238539],[-79.726824,-6.23673]]]}},{"type":"Feature","properties":{"CAMPO":"MOTUPE","FUNDO":"PALACIOS","MODULO":"M03","LOTE":"M03T05-30","ACTIVO":true,"PIEZAS":1,"TIPO":"LOTE"},"geometry":{"type":"Polygon","coordinates":[[[-79.727341,-6.238539],[-79.721959,-6.239923],[-79.714044,-6.241688],[-79.705456,-6.244047],[-79.705485,-6.245776],[-79.714321,-6.243443],[-79.722536,-6.241712],[-79.72782,-6.240295],[-79.727341,-6.238539]]]}},{"type":"Feature","properties":{"CAMPO":"MOTUPE","FUNDO":"PALACIOS","MODULO":"M03","LOTE":"M03T05-31","ACTIVO":true,"PIEZAS":1,"TIPO":"LOTE"},"geometry":{"type":"Polygon","coordinates":[[[-79.72782,-6.240295],[-79.722536,-6.241712],[-79.714321,-6.243443],[-79.705485,-6.245776],[-79.705508,-6.247489],[-79.715022,-6.245194],[-79.723131,-6.243397],[-79.728283,-6.242045],[-79.72782,-6.240295]]]}},{"type":"Feature","properties":{"CAMPO":"MOTUPE","FUNDO":"RIVERA","MODULO":"M03","LOTE":"M03T07-33","ACTIVO":true,"PIEZAS":1,"TIPO":"LOTE"},"geometry":{"type":"Polygon","coordinates":[[[-79.730719,-6.252096],[-79.725749,-6.253549],[-79.717382,-6.255548],[-79.705584,-6.258416],[-79.705598,-6.2602],[-79.717632,-6.257288],[-79.726212,-6.255347],[-79.731188,-6.253893],[-79.730719,-6.252096]]]}},{"type":"Feature","properties":{"CAMPO":"MOTUPE","FUNDO":"RIVERA","MODULO":"M03","LOTE":"M03T07-34","ACTIVO":true,"PIEZAS":1,"TIPO":"LOTE"},"geometry":{"type":"Polygon","coordinates":[[[-79.731188,-6.253893],[-79.726212,-6.255347],[-79.717632,-6.257288],[-79.705598,-6.2602],[-79.705608,-6.261999],[-79.717879,-6.259018],[-79.726675,-6.257151],[-79.731668,-6.255698],[-79.731188,-6.253893]]]}},{"type":"Feature","properties":{"CAMPO":"MOTUPE","FUNDO":"RIVERA","MODULO":"M03","LOTE":"M03T07-35","ACTIVO":true,"PIEZAS":1,"TIPO":"LOTE"},"geometry":{"type":"Polygon","coordinates":[[[-79.731668,-6.255698],[-79.726675,-6.257151],[-79.717879,-6.259018],[-79.705608,-6.261999],[-79.705615,-6.263746],[-79.718139,-6.260759],[-79.727168,-6.258946],[-79.732167,-6.25749],[-79.731668,-6.255698]]]}},{"type":"Feature","properties":{"CAMPO":"MOTUPE","FUNDO":"CHOC CHOC","MODULO":"M04","LOTE":"M04T01-01","ACTIVO":true,"PIEZAS":1,"TIPO":"LOTE"},"geometry":{"type":"Polygon","coordinates":[[[-79.737504,-6.204499],[-79.734146,-6.205089],[-79.734441,-6.209367],[-79.737867,-6.208731],[-79.737504,-6.204499]]]}},{"type":"Feature","properties":{"CAMPO":"MOTUPE","FUNDO":"CHOC CHOC","MODULO":"M04","LOTE":"M04T01-02","ACTIVO":true,"PIEZAS":1,"TIPO":"LOTE"},"geometry":{"type":"Polygon","coordinates":[[[-79.734146,-6.205089],[-79.730825,-6.205703],[-79.731034,-6.209987],[-79.734441,-6.209367],[-79.734146,-6.205089]]]}},{"type":"Feature","properties":{"CAMPO":"MOTUPE","FUNDO":"CHOC CHOC","MODULO":"M04","LOTE":"M04T01-03","ACTIVO":true,"PIEZAS":1,"TIPO":"LOTE"},"geometry":{"type":"Polygon","coordinates":[[[-79.730825,-6.205703],[-79.727392,-6.206339],[-79.727592,-6.210643],[-79.731034,-6.209987],[-79.730825,-6.205703]]]}},{"type":"Feature","properties":{"CAMPO":"MOTUPE","FUNDO":"CHOC CHOC","MODULO":"M04","LOTE":"M04T01-04","ACTIVO":true,"PIEZAS":1,"TIPO":"LOTE"},"geometry":{"type":"Polygon","coordinates":[[[-79.727392,-6.206339],[-79.723914,-6.207011],[-79.724174,-6.211313],[-79.727592,-6.210643],[-79.727392,-6.206339]]]}},{"type":"Feature","properties":{"CAMPO":"MOTUPE","FUNDO":"CHOC CHOC","MODULO":"M04","LOTE":"M04T01-05","ACTIVO":true,"PIEZAS":1,"TIPO":"LOTE"},"geometry":{"type":"Polygon","coordinates":[[[-79.723914,-6.207011],[-79.720517,-6.207675],[-79.720739,-6.211971],[-79.724174,-6.211313],[-79.723914,-6.207011]]]}},{"type":"Feature","properties":{"CAMPO":"MOTUPE","FUNDO":"CHOC CHOC","MODULO":"M04","LOTE":"M04T01-06","ACTIVO":true,"PIEZAS":1,"TIPO":"LOTE"},"geometry":{"type":"Polygon","coordinates":[[[-79.720517,-6.207675],[-79.717077,-6.208366],[-79.717332,-6.212631],[-79.720739,-6.211971],[-79.720517,-6.207675]]]}},{"type":"Feature","properties":{"CAMPO":"MOTUPE","FUNDO":"CHOC CHOC","MODULO":"M04","LOTE":"M04T01-07","ACTIVO":true,"PIEZAS":1,"TIPO":"LOTE"},"geometry":{"type":"Polygon","coordinates":[[[-79.717077,-6.208366],[-79.713608,-6.209077],[-79.713853,-6.213296],[-79.717332,-6.212631],[-79.717077,-6.208366]]]}},{"type":"Feature","properties":{"CAMPO":"MOTUPE","FUNDO":"CHOC CHOC","MODULO":"M04","LOTE":"M04T01-08","ACTIVO":true,"PIEZAS":1,"TIPO":"LOTE"},"geometry":{"type":"Polygon","coordinates":[[[-79.713608,-6.209077],[-79.710133,-6.209792],[-79.710348,-6.213948],[-79.713853,-6.213296],[-79.713608,-6.209077]]]}},{"type":"Feature","properties":{"CAMPO":"MOTUPE","FUNDO":"CHOC CHOC","MODULO":"M04","LOTE":"M04T01-09","ACTIVO":true,"PIEZAS":1,"TIPO":"LOTE"},"geometry":{"type":"Polygon","coordinates":[[[-79.710133,-6.209792],[-79.706675,-6.21051],[-79.706915,-6.214593],[-79.710348,-6.213948],[-79.710133,-6.209792]]]}},{"type":"Feature","properties":{"CAMPO":"MOTUPE","FUNDO":"CHOC CHOC","MODULO":"M04","LOTE":"M04T01-10","ACTIVO":true,"PIEZAS":1,"TIPO":"LOTE"},"geometry":{"type":"Polygon","coordinates":[[[-79.706675,-6.21051],[-79.703224,-6.211211],[-79.703463,-6.215231],[-79.706915,-6.214593],[-79.706675,-6.21051]]]}},{"type":"Feature","properties":{"CAMPO":"MOTUPE","FUNDO":"CHOC CHOC","MODULO":"M04","LOTE":"M04T02-11","ACTIVO":true,"PIEZAS":1,"TIPO":"LOTE"},"geometry":{"type":"Polygon","coordinates":[[[-79.737867,-6.208731],[-79.734441,-6.209367],[-79.734762,-6.213567],[-79.73823,-6.212915],[-79.737867,-6.208731]]]}},{"type":"Feature","properties":{"CAMPO":"MOTUPE","FUNDO":"CHOC CHOC","MODULO":"M04","LOTE":"M04T02-12","ACTIVO":true,"PIEZAS":1,"TIPO":"LOTE"},"geometry":{"type":"Polygon","coordinates":[[[-79.734441,-6.209367],[-79.731034,-6.209987],[-79.731309,-6.214229],[-79.734762,-6.213567],[-79.734441,-6.209367]]]}},{"type":"Feature","properties":{"CAMPO":"MOTUPE","FUNDO":"CHOC CHOC","MODULO":"M04","LOTE":"M04T02-13","ACTIVO":true,"PIEZAS":1,"TIPO":"LOTE"},"geometry":{"type":"Polygon","coordinates":[[[-79.731034,-6.209987],[-79.727592,-6.210643],[-79.727869,-6.214871],[-79.731309,-6.214229],[-79.731034,-6.209987]]]}},{"type":"Feature","properties":{"CAMPO":"MOTUPE","FUNDO":"CHOC CHOC","MODULO":"M04","LOTE":"M04T02-14","ACTIVO":true,"PIEZAS":1,"TIPO":"LOTE"},"geometry":{"type":"Polygon","coordinates":[[[-79.727592,-6.210643],[-79.724174,-6.211313],[-79.724461,-6.215504],[-79.727869,-6.214871],[-79.727592,-6.210643]]]}},{"type":"Feature","properties":{"CAMPO":"MOTUPE","FUNDO":"CHOC CHOC","MODULO":"M04","LOTE":"M04T02-15","ACTIVO":true,"PIEZAS":1,"TIPO":"LOTE"},"geometry":{"type":"Polygon","coordinates":[[[-79.724174,-6.211313],[-79.720739,-6.211971],[-79.721063,-6.216158],[-79.724461,-6.215504],[-79.724174,-6.211313]]]}},{"type":"Feature","properties":{"CAMPO":"MOTUPE","FUNDO":"CHOC CHOC","MODULO":"M04","LOTE":"M04T02-16","ACTIVO":true,"PIEZAS":1,"TIPO":"LOTE"},"geometry":{"type":"Polygon","coordinates":[[[-79.720739,-6.211971],[-79.717332,-6.212631],[-79.717665,-6.216812],[-79.721063,-6.216158],[-79.720739,-6.211971]]]}},{"type":"Feature","properties":{"CAMPO":"MOTUPE","FUNDO":"CHOC CHOC","MODULO":"M04","LOTE":"M04T02-17","ACTIVO":true,"PIEZAS":1,"TIPO":"LOTE"},"geometry":{"type":"Polygon","coordinates":[[[-79.717332,-6.212631],[-79.713853,-6.213296],[-79.714219,-6.217478],[-79.717665,-6.216812],[-79.717332,-6.212631]]]}},{"type":"Feature","properties":{"CAMPO":"MOTUPE","FUNDO":"CHOC CHOC","MODULO":"M04","LOTE":"M04T02-18","ACTIVO":true,"PIEZAS":1,"TIPO":"LOTE"},"geometry":{"type":"Polygon","coordinates":[[[-79.713853,-6.213296],[-79.710348,-6.213948],[-79.710744,-6.218158],[-79.714219,-6.217478],[-79.713853,-6.213296]]]}},{"type":"Feature","properties":{"CAMPO":"MOTUPE","FUNDO":"CHOC CHOC","MODULO":"M04","LOTE":"M04T02-19","ACTIVO":true,"PIEZAS":1,"TIPO":"LOTE"},"geometry":{"type":"Polygon","coordinates":[[[-79.710348,-6.213948],[-79.706915,-6.214593],[-79.70733,-6.218856],[-79.710744,-6.218158],[-79.710348,-6.213948]]]}},{"type":"Feature","properties":{"CAMPO":"MOTUPE","FUNDO":"CHOC CHOC","MODULO":"M04","LOTE":"M04T02-20","ACTIVO":true,"PIEZAS":1,"TIPO":"LOTE"},"geometry":{"type":"Polygon","coordinates":[[[-79.706915,-6.214593],[-79.703463,-6.215231],[-79.703935,-6.219627],[-79.70733,-6.218856],[-79.706915,-6.214593]]]}},{"type":"Feature","properties":{"CAMPO":"MOTUPE","FUNDO":"FRANCO I","MODULO":"M06","LOTE":"M06T01-01","ACTIVO":true,"PIEZAS":1,"TIPO":"LOTE"},"geometry":{"type":"Polygon","coordinates":[[[-79.734221,-6.188764],[-79.731439,-6.188509],[-79.730679,-6.191066],[-79.733683,-6.191301],[-79.734221,-6.188764]]]}},{"type":"Feature","properties":{"CAMPO":"MOTUPE","FUNDO":"FRANCO I","MODULO":"M06","LOTE":"M06T01-02","ACTIVO":true,"PIEZAS":1,"TIPO":"LOTE"},"geometry":{"type":"Polygon","coordinates":[[[-79.731439,-6.188509],[-79.728828,-6.188251],[-79.727909,-6.190855],[-79.730679,-6.191066],[-79.731439,-6.188509]]]}},{"type":"Feature","properties":{"CAMPO":"MOTUPE","FUNDO":"FRANCO I","MODULO":"M06","LOTE":"M06T01-03","ACTIVO":true,"PIEZAS":1,"TIPO":"LOTE"},"geometry":{"type":"Polygon","coordinates":[[[-79.728828,-6.188251],[-79.726185,-6.188013],[-79.725267,-6.190627],[-79.727909,-6.190855],[-79.728828,-6.188251]]]}},{"type":"Feature","properties":{"CAMPO":"MOTUPE","FUNDO":"FRANCO I","MODULO":"M06","LOTE":"M06T01-04","ACTIVO":true,"PIEZAS":1,"TIPO":"LOTE"},"geometry":{"type":"Polygon","coordinates":[[[-79.726185,-6.188013],[-79.72363,-6.187789],[-79.722615,-6.190393],[-79.725267,-6.190627],[-79.726185,-6.188013]]]}},{"type":"Feature","properties":{"CAMPO":"MOTUPE","FUNDO":"FRANCO I","MODULO":"M06","LOTE":"M06T02-05","ACTIVO":true,"PIEZAS":1,"TIPO":"LOTE"},"geometry":{"type":"Polygon","coordinates":[[[-79.733683,-6.191301],[-79.730679,-6.191066],[-79.729812,-6.193647],[-79.733154,-6.193928],[-79.733683,-6.191301]]]}},{"type":"Feature","properties":{"CAMPO":"MOTUPE","FUNDO":"FRANCO I","MODULO":"M06","LOTE":"M06T02-06","ACTIVO":true,"PIEZAS":1,"TIPO":"LOTE"},"geometry":{"type":"Polygon","coordinates":[[[-79.730679,-6.191066],[-79.727909,-6.190855],[-79.727026,-6.193469],[-79.729812,-6.193647],[-79.730679,-6.191066]]]}},{"type":"Feature","properties":{"CAMPO":"MOTUPE","FUNDO":"FRANCO I","MODULO":"M06","LOTE":"M06T02-07","ACTIVO":true,"PIEZAS":1,"TIPO":"LOTE"},"geometry":{"type":"Polygon","coordinates":[[[-79.727909,-6.190855],[-79.725267,-6.190627],[-79.724349,-6.193276],[-79.727026,-6.193469],[-79.727909,-6.190855]]]}},{"type":"Feature","properties":{"CAMPO":"MOTUPE","FUNDO":"FRANCO I","MODULO":"M06","LOTE":"M06T02-08","ACTIVO":true,"PIEZAS":1,"TIPO":"LOTE"},"geometry":{"type":"Polygon","coordinates":[[[-79.725267,-6.190627],[-79.722615,-6.190393],[-79.72165,-6.193078],[-79.724349,-6.193276],[-79.725267,-6.190627]]]}},{"type":"Feature","properties":{"CAMPO":"MOTUPE","FUNDO":"FRANCO I","MODULO":"M06","LOTE":"M06T02-09","ACTIVO":true,"PIEZAS":1,"TIPO":"LOTE"},"geometry":{"type":"Polygon","coordinates":[[[-79.733154,-6.193928],[-79.729812,-6.193647],[-79.728993,-6.196266],[-79.732618,-6.196512],[-79.733154,-6.193928]]]}},{"type":"Feature","properties":{"CAMPO":"MOTUPE","FUNDO":"FRANCO I","MODULO":"M06","LOTE":"M06T02-10","ACTIVO":true,"PIEZAS":1,"TIPO":"LOTE"},"geometry":{"type":"Polygon","coordinates":[[[-79.729812,-6.193647],[-79.727026,-6.193469],[-79.726135,-6.196103],[-79.728993,-6.196266],[-79.729812,-6.193647]]]}},{"type":"Feature","properties":{"CAMPO":"MOTUPE","FUNDO":"FRANCO II","MODULO":"M06","LOTE":"M06T03-13","ACTIVO":true,"PIEZAS":1,"TIPO":"LOTE"},"geometry":{"type":"Polygon","coordinates":[[[-79.72845,-6.198954],[-79.725593,-6.198817],[-79.724715,-6.201489],[-79.727663,-6.201626],[-79.72845,-6.198954]]]}},{"type":"Feature","properties":{"CAMPO":"MOTUPE","FUNDO":"FRANCO II","MODULO":"M06","LOTE":"M06T03-14","ACTIVO":true,"PIEZAS":1,"TIPO":"LOTE"},"geometry":{"type":"Polygon","coordinates":[[[-79.725593,-6.198817],[-79.722891,-6.198664],[-79.721963,-6.201314],[-79.724715,-6.201489],[-79.725593,-6.198817]]]}},{"type":"Feature","properties":{"CAMPO":"MOTUPE","FUNDO":"FRANCO II","MODULO":"M06","LOTE":"M06T03-15","ACTIVO":true,"PIEZAS":1,"TIPO":"LOTE"},"geometry":{"type":"Polygon","coordinates":[[[-79.722891,-6.198664],[-79.72014,-6.198508],[-79.719196,-6.201175],[-79.721963,-6.201314],[-79.722891,-6.198664]]]}},{"type":"Feature","properties":{"CAMPO":"MOTUPE","FUNDO":"FRANCO II","MODULO":"M06","LOTE":"M06T03-16","ACTIVO":true,"PIEZAS":1,"TIPO":"LOTE"},"geometry":{"type":"Polygon","coordinates":[[[-79.72014,-6.198508],[-79.717357,-6.198335],[-79.71642,-6.201022],[-79.719196,-6.201175],[-79.72014,-6.198508]]]}},{"type":"Feature","properties":{"CAMPO":"MOTUPE","FUNDO":"FRANCO II","MODULO":"M06","LOTE":"M06T03-17","ACTIVO":true,"PIEZAS":1,"TIPO":"LOTE"},"geometry":{"type":"Polygon","coordinates":[[[-79.717357,-6.198335],[-79.714556,-6.198151],[-79.713618,-6.20088],[-79.71642,-6.201022],[-79.717357,-6.198335]]]}},{"type":"Feature","properties":{"CAMPO":"MOTUPE","FUNDO":"FRANCO II","MODULO":"M06","LOTE":"M06T04-18","ACTIVO":true,"PIEZAS":1,"TIPO":"LOTE"},"geometry":{"type":"Polygon","coordinates":[[[-79.727663,-6.201626],[-79.724715,-6.201489],[-79.723816,-6.204188],[-79.7269,-6.204306],[-79.727663,-6.201626]]]}},{"type":"Feature","properties":{"CAMPO":"MOTUPE","FUNDO":"FRANCO II","MODULO":"M06","LOTE":"M06T04-19","ACTIVO":true,"PIEZAS":1,"TIPO":"LOTE"},"geometry":{"type":"Polygon","coordinates":[[[-79.724715,-6.201489],[-79.721963,-6.201314],[-79.721012,-6.204001],[-79.723816,-6.204188],[-79.724715,-6.201489]]]}},{"type":"Feature","properties":{"CAMPO":"MOTUPE","FUNDO":"FRANCO II","MODULO":"M06","LOTE":"M06T04-20","ACTIVO":true,"PIEZAS":1,"TIPO":"LOTE"},"geometry":{"type":"Polygon","coordinates":[[[-79.721963,-6.201314],[-79.719196,-6.201175],[-79.718245,-6.203855],[-79.721012,-6.204001],[-79.721963,-6.201314]]]}},{"type":"Feature","properties":{"CAMPO":"MOTUPE","FUNDO":"FRANCO II","MODULO":"M06","LOTE":"M06T04-21","ACTIVO":true,"PIEZAS":1,"TIPO":"LOTE"},"geometry":{"type":"Polygon","coordinates":[[[-79.719196,-6.201175],[-79.71642,-6.201022],[-79.715469,-6.203705],[-79.718245,-6.203855],[-79.719196,-6.201175]]]}},{"type":"Feature","properties":{"CAMPO":"MOTUPE","FUNDO":"FRANCO II","MODULO":"M06","LOTE":"M06T04-22","ACTIVO":true,"PIEZAS":1,"TIPO":"LOTE"},"geometry":{"type":"Polygon","coordinates":[[[-79.71642,-6.201022],[-79.713618,-6.20088],[-79.712665,-6.203569],[-79.715469,-6.203705],[-79.71642,-6.201022]]]}},{"type":"Feature","properties":{"CAMPO":"MOTUPE","FUNDO":"FRANCO II","MODULO":"M06","LOTE":"M06T04-23","ACTIVO":true,"PIEZAS":1,"TIPO":"LOTE"},"geometry":{"type":"Polygon","coordinates":[[[-79.7269,-6.204306],[-79.723816,-6.204188],[-79.722896,-6.206845],[-79.726184,-6.20696],[-79.7269,-6.204306]]]}},{"type":"Feature","properties":{"CAMPO":"MOTUPE","FUNDO":"FRANCO II","MODULO":"M06","LOTE":"M06T05-24","ACTIVO":true,"PIEZAS":1,"TIPO":"LOTE"},"geometry":{"type":"Polygon","coordinates":[[[-79.723816,-6.204188],[-79.721012,-6.204001],[-79.720037,-6.206677],[-79.722896,-6.206845],[-79.723816,-6.204188]]]}},{"type":"Feature","properties":{"CAMPO":"MOTUPE","FUNDO":"FRANCO II","MODULO":"M06","LOTE":"M06T05-25","ACTIVO":true,"PIEZAS":1,"TIPO":"LOTE"},"geometry":{"type":"Polygon","coordinates":[[[-79.721012,-6.204001],[-79.718245,-6.203855],[-79.717272,-6.206527],[-79.720037,-6.206677],[-79.721012,-6.204001]]]}},{"type":"Feature","properties":{"CAMPO":"MOTUPE","FUNDO":"FRANCO II","MODULO":"M06","LOTE":"M06T05-26","ACTIVO":true,"PIEZAS":1,"TIPO":"LOTE"},"geometry":{"type":"Polygon","coordinates":[[[-79.718245,-6.203855],[-79.715469,-6.203705],[-79.714495,-6.206381],[-79.717272,-6.206527],[-79.718245,-6.203855]]]}},{"type":"Feature","properties":{"CAMPO":"MOTUPE","FUNDO":"FRANCO II","MODULO":"M06","LOTE":"M06T05-27","ACTIVO":true,"PIEZAS":1,"TIPO":"LOTE"},"geometry":{"type":"Polygon","coordinates":[[[-79.715469,-6.203705],[-79.712665,-6.203569],[-79.711689,-6.206252],[-79.714495,-6.206381],[-79.715469,-6.203705]]]}},{"type":"Feature","properties":{"CAMPO":"MOTUPE","FUNDO":"FRANCO II","MODULO":"M06","LOTE":"M06T05-28","ACTIVO":true,"PIEZAS":1,"TIPO":"LOTE"},"geometry":{"type":"Polygon","coordinates":[[[-79.726184,-6.20696],[-79.722896,-6.206845],[-79.721982,-6.209459],[-79.72548,-6.209585],[-79.726184,-6.20696]]]}},{"type":"Feature","properties":{"CAMPO":"MOTUPE","FUNDO":"FRANCO II","MODULO":"M06","LOTE":"M06T05-29","ACTIVO":true,"PIEZAS":1,"TIPO":"LOTE"},"geometry":{"type":"Polygon","coordinates":[[[-79.722896,-6.206845],[-79.720037,-6.206677],[-79.719065,-6.209317],[-79.721982,-6.209459],[-79.722896,-6.206845]]]}},{"type":"Feature","properties":{"CAMPO":"OLMOS","FUNDO":"CHOLOCAL","MODULO":"M07","LOTE":"M07T01-01","ACTIVO":true,"PIEZAS":2,"TIPO":"LOTE"},"geometry":{"type":"MultiPolygon","coordinates":[[[[-79.953511,-6.095618],[-79.951173,-6.095155],[-79.951794,-6.092077],[-79.954123,-6.092538],[-79.953511,-6.095618]]],[[[-79.946999,-6.078426],[-79.944865,-6.078001],[-79.945483,-6.074548],[-79.947628,-6.074976],[-79.946999,-6.078426]]]]}},{"type":"Feature","properties":{"CAMPO":"OLMOS","FUNDO":"CHOLOCAL","MODULO":"M07","LOTE":"M07T01-02","ACTIVO":true,"PIEZAS":1,"TIPO":"LOTE"},"geometry":{"type":"Polygon","coordinates":[[[-79.951173,-6.095155],[-79.948798,-6.094684],[-79.949424,-6.091608],[-79.951794,-6.092077],[-79.951173,-6.095155]]]}},{"type":"Feature","properties":{"CAMPO":"OLMOS","FUNDO":"CHOLOCAL","MODULO":"M07","LOTE":"M07T01-03","ACTIVO":true,"PIEZAS":1,"TIPO":"LOTE"},"geometry":{"type":"Polygon","coordinates":[[[-79.948798,-6.094684],[-79.946403,-6.094203],[-79.947033,-6.091127],[-79.949424,-6.091608],[-79.948798,-6.094684]]]}},{"type":"Feature","properties":{"CAMPO":"OLMOS","FUNDO":"CHOLOCAL","MODULO":"M07","LOTE":"M07T02-04","ACTIVO":true,"PIEZAS":1,"TIPO":"LOTE"},"geometry":{"type":"Polygon","coordinates":[[[-79.953511,-6.095618],[-79.952904,-6.098682],[-79.95056,-6.098218],[-79.951173,-6.095155],[-79.953511,-6.095618]]]}},{"type":"Feature","properties":{"CAMPO":"OLMOS","FUNDO":"CHOLOCAL","MODULO":"M07","LOTE":"M07T02-05","ACTIVO":true,"PIEZAS":2,"TIPO":"LOTE"},"geometry":{"type":"MultiPolygon","coordinates":[[[[-79.947628,-6.074976],[-79.945483,-6.074548],[-79.946096,-6.071128],[-79.948246,-6.071558],[-79.947628,-6.074976]]],[[[-79.951173,-6.095155],[-79.95056,-6.098218],[-79.948179,-6.097742],[-79.948798,-6.094684],[-79.951173,-6.095155]]]]}},{"type":"Feature","properties":{"CAMPO":"OLMOS","FUNDO":"CHOLOCAL","MODULO":"M07","LOTE":"M07T02-06","ACTIVO":true,"PIEZAS":1,"TIPO":"LOTE"},"geometry":{"type":"Polygon","coordinates":[[[-79.948798,-6.094684],[-79.948179,-6.097742],[-79.945779,-6.097257],[-79.946403,-6.094203],[-79.948798,-6.094684]]]}},{"type":"Feature","properties":{"CAMPO":"OLMOS","FUNDO":"CHOLOCAL","MODULO":"M07","LOTE":"M07T02-07","ACTIVO":true,"PIEZAS":1,"TIPO":"LOTE"},"geometry":{"type":"Polygon","coordinates":[[[-79.952904,-6.098682],[-79.952296,-6.101744],[-79.949945,-6.101277],[-79.95056,-6.098218],[-79.952904,-6.098682]]]}},{"type":"Feature","properties":{"CAMPO":"OLMOS","FUNDO":"CHOLOCAL","MODULO":"M07","LOTE":"M07T03-08","ACTIVO":true,"PIEZAS":2,"TIPO":"LOTE"},"geometry":{"type":"MultiPolygon","coordinates":[[[[-79.945779,-6.097257],[-79.943369,-6.09677],[-79.943998,-6.093723],[-79.946403,-6.094203],[-79.945779,-6.097257]]],[[[-79.948246,-6.071558],[-79.946096,-6.071128],[-79.946708,-6.067711],[-79.948865,-6.068143],[-79.948246,-6.071558]]]]}},{"type":"Feature","properties":{"CAMPO":"OLMOS","FUNDO":"CHOLOCAL","MODULO":"M07","LOTE":"M07T03-09","ACTIVO":true,"PIEZAS":1,"TIPO":"LOTE"},"geometry":{"type":"Polygon","coordinates":[[[-79.95056,-6.098218],[-79.949945,-6.101277],[-79.94756,-6.1008],[-79.948179,-6.097742],[-79.95056,-6.098218]]]}},{"type":"Feature","properties":{"CAMPO":"OLMOS","FUNDO":"CHOLOCAL","MODULO":"M07","LOTE":"M07T03-11","ACTIVO":true,"PIEZAS":2,"TIPO":"LOTE"},"geometry":{"type":"MultiPolygon","coordinates":[[[[-79.948865,-6.068143],[-79.946708,-6.067711],[-79.947321,-6.064296],[-79.949484,-6.06473],[-79.948865,-6.068143]]],[[[-79.94756,-6.1008],[-79.945161,-6.100319],[-79.945779,-6.097257],[-79.948179,-6.097742],[-79.94756,-6.1008]]]]}},{"type":"Feature","properties":{"CAMPO":"OLMOS","FUNDO":"CHOLOCAL","MODULO":"M07","LOTE":"M07T03-12","ACTIVO":true,"PIEZAS":1,"TIPO":"LOTE"},"geometry":{"type":"Polygon","coordinates":[[[-79.945161,-6.100319],[-79.942745,-6.099834],[-79.943369,-6.09677],[-79.945779,-6.097257],[-79.945161,-6.100319]]]}},{"type":"Feature","properties":{"CAMPO":"OLMOS","FUNDO":"CHOLOCAL","MODULO":"M07","LOTE":"M07T04-10","ACTIVO":true,"PIEZAS":1,"TIPO":"LOTE"},"geometry":{"type":"Polygon","coordinates":[[[-79.946403,-6.094203],[-79.943998,-6.093723],[-79.944633,-6.090675],[-79.947033,-6.091127],[-79.946403,-6.094203]]]}},{"type":"Feature","properties":{"CAMPO":"OLMOS","FUNDO":"CHOLOCAL","MODULO":"M07","LOTE":"M07T04-13","ACTIVO":true,"PIEZAS":1,"TIPO":"LOTE"},"geometry":{"type":"Polygon","coordinates":[[[-79.952296,-6.101744],[-79.951684,-6.104803],[-79.949329,-6.104334],[-79.949945,-6.101277],[-79.952296,-6.101744]]]}},{"type":"Feature","properties":{"CAMPO":"OLMOS","FUNDO":"CHOLOCAL","MODULO":"M08","LOTE":"M08T01-14","ACTIVO":true,"PIEZAS":1,"TIPO":"LOTE"},"geometry":{"type":"Polygon","coordinates":[[[-79.949945,-6.101277],[-79.949329,-6.104334],[-79.946945,-6.103855],[-79.94756,-6.1008],[-79.949945,-6.101277]]]}},{"type":"Feature","properties":{"CAMPO":"OLMOS","FUNDO":"CHOLOCAL","MODULO":"M08","LOTE":"M08T01-15","ACTIVO":true,"PIEZAS":1,"TIPO":"LOTE"},"geometry":{"type":"Polygon","coordinates":[[[-79.94756,-6.1008],[-79.946945,-6.103855],[-79.944543,-6.103373],[-79.945161,-6.100319],[-79.94756,-6.1008]]]}},{"type":"Feature","properties":{"CAMPO":"OLMOS","FUNDO":"CHOLOCAL","MODULO":"M08","LOTE":"M08T01-15B","ACTIVO":true,"PIEZAS":1,"TIPO":"LOTE"},"geometry":{"type":"Polygon","coordinates":[[[-79.944543,-6.103373],[-79.942128,-6.102888],[-79.942745,-6.099834],[-79.945161,-6.100319],[-79.944543,-6.103373]]]}},{"type":"Feature","properties":{"CAMPO":"OLMOS","FUNDO":"CHOLOCAL","MODULO":"M08","LOTE":"M08T01-16","ACTIVO":true,"PIEZAS":1,"TIPO":"LOTE"},"geometry":{"type":"Polygon","coordinates":[[[-79.951684,-6.104803],[-79.951069,-6.107862],[-79.948706,-6.107389],[-79.949329,-6.104334],[-79.951684,-6.104803]]]}},{"type":"Feature","properties":{"CAMPO":"OLMOS","FUNDO":"CHOLOCAL","MODULO":"M08","LOTE":"M08T02-17","ACTIVO":true,"PIEZAS":1,"TIPO":"LOTE"},"geometry":{"type":"Polygon","coordinates":[[[-79.949329,-6.104334],[-79.948706,-6.107389],[-79.946322,-6.106911],[-79.946945,-6.103855],[-79.949329,-6.104334]]]}},{"type":"Feature","properties":{"CAMPO":"OLMOS","FUNDO":"CHOLOCAL","MODULO":"M08","LOTE":"M08T02-18","ACTIVO":true,"PIEZAS":1,"TIPO":"LOTE"},"geometry":{"type":"Polygon","coordinates":[[[-79.946945,-6.103855],[-79.946322,-6.106911],[-79.943923,-6.10643],[-79.944543,-6.103373],[-79.946945,-6.103855]]]}},{"type":"Feature","properties":{"CAMPO":"OLMOS","FUNDO":"CHOLOCAL","MODULO":"M08","LOTE":"M08T02-19","ACTIVO":true,"PIEZAS":1,"TIPO":"LOTE"},"geometry":{"type":"Polygon","coordinates":[[[-79.944543,-6.103373],[-79.943923,-6.10643],[-79.94151,-6.105945],[-79.942128,-6.102888],[-79.944543,-6.103373]]]}},{"type":"Feature","properties":{"CAMPO":"OLMOS","FUNDO":"CHOLOCAL","MODULO":"M08","LOTE":"M08T03-20","ACTIVO":true,"PIEZAS":1,"TIPO":"LOTE"},"geometry":{"type":"Polygon","coordinates":[[[-79.951069,-6.107862],[-79.950454,-6.110918],[-79.948082,-6.110443],[-79.948706,-6.107389],[-79.951069,-6.107862]]]}},{"type":"Feature","properties":{"CAMPO":"OLMOS","FUNDO":"CHOLOCAL","MODULO":"M08","LOTE":"M08T03-22","ACTIVO":true,"PIEZAS":2,"TIPO":"LOTE"},"geometry":{"type":"MultiPolygon","coordinates":[[[[-79.943923,-6.10643],[-79.943303,-6.109487],[-79.940891,-6.109003],[-79.94151,-6.105945],[-79.943923,-6.10643]]],[[[-79.949484,-6.06473],[-79.947321,-6.064296],[-79.947934,-6.060881],[-79.950104,-6.061317],[-79.949484,-6.06473]]]]}},{"type":"Feature","properties":{"CAMPO":"OLMOS","FUNDO":"CHOLOCAL","MODULO":"M08","LOTE":"M08T04-21","ACTIVO":true,"PIEZAS":2,"TIPO":"LOTE"},"geometry":{"type":"MultiPolygon","coordinates":[[[[-79.950104,-6.061317],[-79.947934,-6.060881],[-79.948548,-6.057466],[-79.950724,-6.057904],[-79.950104,-6.061317]]],[[[-79.948706,-6.107389],[-79.948082,-6.110443],[-79.94569,-6.109964],[-79.946322,-6.106911],[-79.948706,-6.107389]]]]}},{"type":"Feature","properties":{"CAMPO":"OLMOS","FUNDO":"CHOLOCAL","MODULO":"M08","LOTE":"M08T04-23","ACTIVO":true,"PIEZAS":1,"TIPO":"LOTE"},"geometry":{"type":"Polygon","coordinates":[[[-79.946322,-6.106911],[-79.94569,-6.109964],[-79.943303,-6.109487],[-79.943923,-6.10643],[-79.946322,-6.106911]]]}},{"type":"Feature","properties":{"CAMPO":"OLMOS","FUNDO":"CHOLOCAL","MODULO":"M08","LOTE":"M08T04-24","ACTIVO":true,"PIEZAS":1,"TIPO":"LOTE"},"geometry":{"type":"Polygon","coordinates":[[[-79.950454,-6.110918],[-79.949838,-6.113974],[-79.947459,-6.113496],[-79.948082,-6.110443],[-79.950454,-6.110918]]]}},{"type":"Feature","properties":{"CAMPO":"OLMOS","FUNDO":"CHOLOCAL","MODULO":"M08","LOTE":"M08T04-25","ACTIVO":true,"PIEZAS":1,"TIPO":"LOTE"},"geometry":{"type":"Polygon","coordinates":[[[-79.948082,-6.110443],[-79.947459,-6.113496],[-79.945064,-6.113015],[-79.94569,-6.109964],[-79.948082,-6.110443]]]}},{"type":"Feature","properties":{"CAMPO":"OLMOS","FUNDO":"CHOLOCAL","MODULO":"M10","LOTE":"M10T01-26","ACTIVO":true,"PIEZAS":3,"TIPO":"LOTE"},"geometry":{"type":"MultiPolygon","coordinates":[[[[-79.942128,-6.102888],[-79.939698,-6.102399],[-79.940321,-6.09935],[-79.942745,-6.099834],[-79.942128,-6.102888]]],[[[-79.945064,-6.113015],[-79.942651,-6.11253],[-79.943303,-6.109487],[-79.94569,-6.109964],[-79.945064,-6.113015]]],[[[-79.950724,-6.057904],[-79.948548,-6.057466],[-79.949162,-6.054049],[-79.951345,-6.054489],[-79.950724,-6.057904]]]]}},{"type":"Feature","properties":{"CAMPO":"OLMOS","FUNDO":"CHOLOCAL","MODULO":"M10","LOTE":"M10T01-27","ACTIVO":true,"PIEZAS":2,"TIPO":"LOTE"},"geometry":{"type":"MultiPolygon","coordinates":[[[[-79.949838,-6.113974],[-79.949222,-6.117029],[-79.946835,-6.116551],[-79.947459,-6.113496],[-79.949838,-6.113974]]],[[[-79.951345,-6.054489],[-79.949162,-6.054049],[-79.949777,-6.050631],[-79.951966,-6.051073],[-79.951345,-6.054489]]]]}},{"type":"Feature","properties":{"CAMPO":"OLMOS","FUNDO":"CHOLOCAL","MODULO":"M10","LOTE":"M10T01-28","ACTIVO":true,"PIEZAS":1,"TIPO":"LOTE"},"geometry":{"type":"Polygon","coordinates":[[[-79.947459,-6.113496],[-79.946835,-6.116551],[-79.944441,-6.11607],[-79.945064,-6.113015],[-79.947459,-6.113496]]]}},{"type":"Feature","properties":{"CAMPO":"OLMOS","FUNDO":"CHOLOCAL","MODULO":"M10","LOTE":"M10T02-29","ACTIVO":true,"PIEZAS":1,"TIPO":"LOTE"},"geometry":{"type":"Polygon","coordinates":[[[-79.945064,-6.113015],[-79.944441,-6.11607],[-79.942032,-6.115587],[-79.942651,-6.11253],[-79.945064,-6.113015]]]}},{"type":"Feature","properties":{"CAMPO":"OLMOS","FUNDO":"CHOLOCAL","MODULO":"M10","LOTE":"M10T02-30","ACTIVO":true,"PIEZAS":1,"TIPO":"LOTE"},"geometry":{"type":"Polygon","coordinates":[[[-79.949222,-6.117029],[-79.948605,-6.120085],[-79.946211,-6.119605],[-79.946835,-6.116551],[-79.949222,-6.117029]]]}},{"type":"Feature","properties":{"CAMPO":"OLMOS","FUNDO":"CHOLOCAL","MODULO":"M10","LOTE":"M10T02-31","ACTIVO":true,"PIEZAS":1,"TIPO":"LOTE"},"geometry":{"type":"Polygon","coordinates":[[[-79.946835,-6.116551],[-79.946211,-6.119605],[-79.94381,-6.119124],[-79.944441,-6.11607],[-79.946835,-6.116551]]]}},{"type":"Feature","properties":{"CAMPO":"OLMOS","FUNDO":"CHOLOCAL","MODULO":"M10","LOTE":"M10T03-32","ACTIVO":true,"PIEZAS":1,"TIPO":"LOTE"},"geometry":{"type":"Polygon","coordinates":[[[-79.944441,-6.11607],[-79.94381,-6.119124],[-79.94141,-6.118644],[-79.942032,-6.115587],[-79.944441,-6.11607]]]}},{"type":"Feature","properties":{"CAMPO":"OLMOS","FUNDO":"CHOLOCAL","MODULO":"M10","LOTE":"M10T03-33","ACTIVO":true,"PIEZAS":1,"TIPO":"LOTE"},"geometry":{"type":"Polygon","coordinates":[[[-79.948605,-6.120085],[-79.947987,-6.123139],[-79.945586,-6.122659],[-79.946211,-6.119605],[-79.948605,-6.120085]]]}},{"type":"Feature","properties":{"CAMPO":"OLMOS","FUNDO":"CHOLOCAL","MODULO":"M10","LOTE":"M10T03-34","ACTIVO":true,"PIEZAS":1,"TIPO":"LOTE"},"geometry":{"type":"Polygon","coordinates":[[[-79.946211,-6.119605],[-79.945586,-6.122659],[-79.943181,-6.122177],[-79.94381,-6.119124],[-79.946211,-6.119605]]]}},{"type":"Feature","properties":{"CAMPO":"OLMOS","FUNDO":"CHOLOCAL","MODULO":"M10","LOTE":"M10T03-35","ACTIVO":true,"PIEZAS":1,"TIPO":"LOTE"},"geometry":{"type":"Polygon","coordinates":[[[-79.94381,-6.119124],[-79.943181,-6.122177],[-79.940783,-6.121697],[-79.94141,-6.118644],[-79.94381,-6.119124]]]}},{"type":"Feature","properties":{"CAMPO":"OLMOS","FUNDO":"CHOLOCAL","MODULO":"M10","LOTE":"M10T04-36","ACTIVO":true,"PIEZAS":1,"TIPO":"LOTE"},"geometry":{"type":"Polygon","coordinates":[[[-79.947987,-6.123139],[-79.94737,-6.126193],[-79.944963,-6.125712],[-79.945586,-6.122659],[-79.947987,-6.123139]]]}},{"type":"Feature","properties":{"CAMPO":"OLMOS","FUNDO":"CHOLOCAL","MODULO":"M10","LOTE":"M10T04-37","ACTIVO":true,"PIEZAS":1,"TIPO":"LOTE"},"geometry":{"type":"Polygon","coordinates":[[[-79.945586,-6.122659],[-79.944963,-6.125712],[-79.94255,-6.12523],[-79.943181,-6.122177],[-79.945586,-6.122659]]]}},{"type":"Feature","properties":{"CAMPO":"OLMOS","FUNDO":"CHOLOCAL","MODULO":"M10","LOTE":"M10T04-38","ACTIVO":true,"PIEZAS":3,"TIPO":"LOTE"},"geometry":{"type":"MultiPolygon","coordinates":[[[[-79.943181,-6.122177],[-79.94255,-6.12523],[-79.940155,-6.124752],[-79.940783,-6.121697],[-79.943181,-6.122177]]],[[[-79.951966,-6.051073],[-79.949777,-6.050631],[-79.950392,-6.047214],[-79.952587,-6.047658],[-79.951966,-6.051073]]],[[[-79.940155,-6.124752],[-79.937743,-6.12427],[-79.938373,-6.121218],[-79.940783,-6.121697],[-79.940155,-6.124752]]]]}},{"type":"Feature","properties":{"CAMPO":"OLMOS","FUNDO":"CHALLAPAMPA","MODULO":"M11","LOTE":"M11T01-39","ACTIVO":true,"PIEZAS":2,"TIPO":"LOTE"},"geometry":{"type":"MultiPolygon","coordinates":[[[[-79.952587,-6.047658],[-79.950392,-6.047214],[-79.951007,-6.043796],[-79.953208,-6.044242],[-79.952587,-6.047658]]],[[[-79.94737,-6.126193],[-79.946752,-6.129247],[-79.944337,-6.128765],[-79.944963,-6.125712],[-79.94737,-6.126193]]]]}},{"type":"Feature","properties":{"CAMPO":"OLMOS","FUNDO":"CHALLAPAMPA","MODULO":"M11","LOTE":"M11T01-40","ACTIVO":true,"PIEZAS":1,"TIPO":"LOTE"},"geometry":{"type":"Polygon","coordinates":[[[-79.944963,-6.125712],[-79.944337,-6.128765],[-79.941923,-6.128283],[-79.94255,-6.12523],[-79.944963,-6.125712]]]}},{"type":"Feature","properties":{"CAMPO":"OLMOS","FUNDO":"CHALLAPAMPA","MODULO":"M11","LOTE":"M11T01-41","ACTIVO":true,"PIEZAS":1,"TIPO":"LOTE"},"geometry":{"type":"Polygon","coordinates":[[[-79.94255,-6.12523],[-79.941923,-6.128283],[-79.939522,-6.127804],[-79.940155,-6.124752],[-79.94255,-6.12523]]]}},{"type":"Feature","properties":{"CAMPO":"OLMOS","FUNDO":"CHALLAPAMPA","MODULO":"M11","LOTE":"M11T02-42","ACTIVO":true,"PIEZAS":2,"TIPO":"LOTE"},"geometry":{"type":"MultiPolygon","coordinates":[[[[-79.953208,-6.044242],[-79.951007,-6.043796],[-79.951623,-6.040378],[-79.953829,-6.040825],[-79.953208,-6.044242]]],[[[-79.946752,-6.129247],[-79.946135,-6.1323],[-79.943712,-6.131816],[-79.944337,-6.128765],[-79.946752,-6.129247]]]]}},{"type":"Feature","properties":{"CAMPO":"OLMOS","FUNDO":"CHALLAPAMPA","MODULO":"M11","LOTE":"M11T02-42B","ACTIVO":true,"PIEZAS":1,"TIPO":"LOTE"},"geometry":{"type":"Polygon","coordinates":[[[-79.944337,-6.128765],[-79.943712,-6.131816],[-79.941299,-6.131333],[-79.941923,-6.128283],[-79.944337,-6.128765]]]}},{"type":"Feature","properties":{"CAMPO":"OLMOS","FUNDO":"CHALLAPAMPA","MODULO":"M11","LOTE":"M11T02-43","ACTIVO":true,"PIEZAS":1,"TIPO":"LOTE"},"geometry":{"type":"Polygon","coordinates":[[[-79.941923,-6.128283],[-79.941299,-6.131333],[-79.938897,-6.130854],[-79.939522,-6.127804],[-79.941923,-6.128283]]]}},{"type":"Feature","properties":{"CAMPO":"OLMOS","FUNDO":"CHALLAPAMPA","MODULO":"M11","LOTE":"M11T02-44","ACTIVO":true,"PIEZAS":1,"TIPO":"LOTE"},"geometry":{"type":"Polygon","coordinates":[[[-79.946135,-6.1323],[-79.945518,-6.135352],[-79.943087,-6.134867],[-79.943712,-6.131816],[-79.946135,-6.1323]]]}},{"type":"Feature","properties":{"CAMPO":"OLMOS","FUNDO":"CHALLAPAMPA","MODULO":"M11","LOTE":"M11T02-45","ACTIVO":true,"PIEZAS":1,"TIPO":"LOTE"},"geometry":{"type":"Polygon","coordinates":[[[-79.943712,-6.131816],[-79.943087,-6.134867],[-79.940673,-6.134385],[-79.941299,-6.131333],[-79.943712,-6.131816]]]}},{"type":"Feature","properties":{"CAMPO":"OLMOS","FUNDO":"CHALLAPAMPA","MODULO":"M11","LOTE":"M11T03-46","ACTIVO":true,"PIEZAS":1,"TIPO":"LOTE"},"geometry":{"type":"Polygon","coordinates":[[[-79.941299,-6.131333],[-79.940673,-6.134385],[-79.938271,-6.133906],[-79.938897,-6.130854],[-79.941299,-6.131333]]]}},{"type":"Feature","properties":{"CAMPO":"OLMOS","FUNDO":"CHALLAPAMPA","MODULO":"M11","LOTE":"M11T03-47","ACTIVO":true,"PIEZAS":1,"TIPO":"LOTE"},"geometry":{"type":"Polygon","coordinates":[[[-79.945518,-6.135352],[-79.944901,-6.138404],[-79.942463,-6.137917],[-79.943087,-6.134867],[-79.945518,-6.135352]]]}},{"type":"Feature","properties":{"CAMPO":"OLMOS","FUNDO":"CHALLAPAMPA","MODULO":"M11","LOTE":"M11T03-48","ACTIVO":true,"PIEZAS":1,"TIPO":"LOTE"},"geometry":{"type":"Polygon","coordinates":[[[-79.943087,-6.134867],[-79.942463,-6.137917],[-79.94005,-6.137436],[-79.940673,-6.134385],[-79.943087,-6.134867]]]}},{"type":"Feature","properties":{"CAMPO":"OLMOS","FUNDO":"CHALLAPAMPA","MODULO":"M11","LOTE":"M11T03-49","ACTIVO":true,"PIEZAS":1,"TIPO":"LOTE"},"geometry":{"type":"Polygon","coordinates":[[[-79.940673,-6.134385],[-79.94005,-6.137436],[-79.937648,-6.136957],[-79.938271,-6.133906],[-79.940673,-6.134385]]]}},{"type":"Feature","properties":{"CAMPO":"OLMOS","FUNDO":"CHALLAPAMPA","MODULO":"M11","LOTE":"M11T03-50","ACTIVO":true,"PIEZAS":1,"TIPO":"LOTE"},"geometry":{"type":"Polygon","coordinates":[[[-79.944901,-6.138404],[-79.944284,-6.141455],[-79.941838,-6.140968],[-79.942463,-6.137917],[-79.944901,-6.138404]]]}},{"type":"Feature","properties":{"CAMPO":"OLMOS","FUNDO":"CHALLAPAMPA","MODULO":"M11","LOTE":"M11T03-51","ACTIVO":true,"PIEZAS":1,"TIPO":"LOTE"},"geometry":{"type":"Polygon","coordinates":[[[-79.942463,-6.137917],[-79.941838,-6.140968],[-79.939425,-6.140486],[-79.94005,-6.137436],[-79.942463,-6.137917]]]}},{"type":"Feature","properties":{"CAMPO":"OLMOS","FUNDO":"CHALLAPAMPA","MODULO":"M11","LOTE":"M11T04-52","ACTIVO":true,"PIEZAS":1,"TIPO":"LOTE"},"geometry":{"type":"Polygon","coordinates":[[[-79.94005,-6.137436],[-79.939425,-6.140486],[-79.937024,-6.140007],[-79.937648,-6.136957],[-79.94005,-6.137436]]]}},{"type":"Feature","properties":{"CAMPO":"OLMOS","FUNDO":"CHALLAPAMPA","MODULO":"M11","LOTE":"M11T04-53","ACTIVO":true,"PIEZAS":1,"TIPO":"LOTE"},"geometry":{"type":"Polygon","coordinates":[[[-79.944284,-6.141455],[-79.943666,-6.144505],[-79.941213,-6.144017],[-79.941838,-6.140968],[-79.944284,-6.141455]]]}},{"type":"Feature","properties":{"CAMPO":"OLMOS","FUNDO":"CHALLAPAMPA","MODULO":"M11","LOTE":"M11T04-54","ACTIVO":true,"PIEZAS":1,"TIPO":"LOTE"},"geometry":{"type":"Polygon","coordinates":[[[-79.941838,-6.140968],[-79.941213,-6.144017],[-79.938801,-6.143536],[-79.939425,-6.140486],[-79.941838,-6.140968]]]}},{"type":"Feature","properties":{"CAMPO":"OLMOS","FUNDO":"CHALLAPAMPA","MODULO":"M11","LOTE":"M11T04-55","ACTIVO":true,"PIEZAS":1,"TIPO":"LOTE"},"geometry":{"type":"Polygon","coordinates":[[[-79.939425,-6.140486],[-79.938801,-6.143536],[-79.9364,-6.143057],[-79.937024,-6.140007],[-79.939425,-6.140486]]]}},{"type":"Feature","properties":{"CAMPO":"OLMOS","FUNDO":"CHALLAPAMPA","MODULO":"M11","LOTE":"M11T04-56","ACTIVO":true,"PIEZAS":1,"TIPO":"LOTE"},"geometry":{"type":"Polygon","coordinates":[[[-79.943666,-6.144505],[-79.943048,-6.147555],[-79.940588,-6.147065],[-79.941213,-6.144017],[-79.943666,-6.144505]]]}},{"type":"Feature","properties":{"CAMPO":"OLMOS","FUNDO":"CHALLAPAMPA","MODULO":"M11","LOTE":"M11T05-101","ACTIVO":true,"PIEZAS":1,"TIPO":"LOTE"},"geometry":{"type":"Polygon","coordinates":[[[-79.941213,-6.144017],[-79.940588,-6.147065],[-79.938176,-6.146584],[-79.938801,-6.143536],[-79.941213,-6.144017]]]}},{"type":"Feature","properties":{"CAMPO":"OLMOS","FUNDO":"CHALLAPAMPA","MODULO":"M11","LOTE":"M11T05-102","ACTIVO":true,"PIEZAS":1,"TIPO":"LOTE"},"geometry":{"type":"Polygon","coordinates":[[[-79.938801,-6.143536],[-79.938176,-6.146584],[-79.935776,-6.146106],[-79.9364,-6.143057],[-79.938801,-6.143536]]]}},{"type":"Feature","properties":{"CAMPO":"OLMOS","FUNDO":"CHALLAPAMPA","MODULO":"M11","LOTE":"M11T05-103","ACTIVO":true,"PIEZAS":1,"TIPO":"LOTE"},"geometry":{"type":"Polygon","coordinates":[[[-79.943048,-6.147555],[-79.94243,-6.150604],[-79.939962,-6.150112],[-79.940588,-6.147065],[-79.943048,-6.147555]]]}},{"type":"Feature","properties":{"CAMPO":"OLMOS","FUNDO":"CHALLAPAMPA","MODULO":"M11","LOTE":"M11T05-104","ACTIVO":true,"PIEZAS":2,"TIPO":"LOTE"},"geometry":{"type":"MultiPolygon","coordinates":[[[[-79.953829,-6.040825],[-79.951623,-6.040378],[-79.952239,-6.03696],[-79.95445,-6.037409],[-79.953829,-6.040825]]],[[[-79.940588,-6.147065],[-79.939962,-6.150112],[-79.93755,-6.149632],[-79.938176,-6.146584],[-79.940588,-6.147065]]]]}},{"type":"Feature","properties":{"CAMPO":"OLMOS","FUNDO":"CHALLAPAMPA","MODULO":"M12","LOTE":"M12T01-57","ACTIVO":true,"PIEZAS":2,"TIPO":"LOTE"},"geometry":{"type":"MultiPolygon","coordinates":[[[[-79.939962,-6.150112],[-79.93755,-6.149632],[-79.936925,-6.152679],[-79.939337,-6.15316],[-79.939962,-6.150112]]],[[[-79.95445,-6.037409],[-79.952239,-6.03696],[-79.952855,-6.033542],[-79.955071,-6.033992],[-79.95445,-6.037409]]]]}},{"type":"Feature","properties":{"CAMPO":"OLMOS","FUNDO":"CHALLAPAMPA","MODULO":"M12","LOTE":"M12T01-58","ACTIVO":true,"PIEZAS":1,"TIPO":"LOTE"},"geometry":{"type":"Polygon","coordinates":[[[-79.93755,-6.149632],[-79.935151,-6.149154],[-79.934526,-6.152201],[-79.936925,-6.152679],[-79.93755,-6.149632]]]}},{"type":"Feature","properties":{"CAMPO":"OLMOS","FUNDO":"CHALLAPAMPA","MODULO":"M12","LOTE":"M12T01-59","ACTIVO":true,"PIEZAS":1,"TIPO":"LOTE"},"geometry":{"type":"Polygon","coordinates":[[[-79.94243,-6.150604],[-79.941812,-6.153652],[-79.939337,-6.15316],[-79.939962,-6.150112],[-79.94243,-6.150604]]]}},{"type":"Feature","properties":{"CAMPO":"OLMOS","FUNDO":"CHALLAPAMPA","MODULO":"M12","LOTE":"M12T01-60","ACTIVO":true,"PIEZAS":1,"TIPO":"LOTE"},"geometry":{"type":"Polygon","coordinates":[[[-79.939337,-6.15316],[-79.936925,-6.152679],[-79.9363,-6.155726],[-79.938712,-6.156207],[-79.939337,-6.15316]]]}},{"type":"Feature","properties":{"CAMPO":"OLMOS","FUNDO":"CHALLAPAMPA","MODULO":"M12","LOTE":"M12T02-61","ACTIVO":true,"PIEZAS":2,"TIPO":"LOTE"},"geometry":{"type":"MultiPolygon","coordinates":[[[[-79.955071,-6.033992],[-79.952855,-6.033542],[-79.953471,-6.030124],[-79.955692,-6.030576],[-79.955071,-6.033992]]],[[[-79.936925,-6.152679],[-79.934526,-6.152201],[-79.933901,-6.155247],[-79.9363,-6.155726],[-79.936925,-6.152679]]]]}},{"type":"Feature","properties":{"CAMPO":"OLMOS","FUNDO":"CHALLAPAMPA","MODULO":"M12","LOTE":"M12T02-62","ACTIVO":true,"PIEZAS":1,"TIPO":"LOTE"},"geometry":{"type":"Polygon","coordinates":[[[-79.941812,-6.153652],[-79.941194,-6.1567],[-79.938712,-6.156207],[-79.939337,-6.15316],[-79.941812,-6.153652]]]}},{"type":"Feature","properties":{"CAMPO":"OLMOS","FUNDO":"CHALLAPAMPA","MODULO":"M12","LOTE":"M12T02-63","ACTIVO":true,"PIEZAS":1,"TIPO":"LOTE"},"geometry":{"type":"Polygon","coordinates":[[[-79.938712,-6.156207],[-79.9363,-6.155726],[-79.935675,-6.158773],[-79.938087,-6.159254],[-79.938712,-6.156207]]]}},{"type":"Feature","properties":{"CAMPO":"OLMOS","FUNDO":"CHALLAPAMPA","MODULO":"M12","LOTE":"M12T02-64","ACTIVO":true,"PIEZAS":1,"TIPO":"LOTE"},"geometry":{"type":"Polygon","coordinates":[[[-79.9363,-6.155726],[-79.933901,-6.155247],[-79.933276,-6.158294],[-79.935675,-6.158773],[-79.9363,-6.155726]]]}},{"type":"Feature","properties":{"CAMPO":"OLMOS","FUNDO":"CHALLAPAMPA","MODULO":"M12","LOTE":"M12T03-65","ACTIVO":true,"PIEZAS":2,"TIPO":"LOTE"},"geometry":{"type":"MultiPolygon","coordinates":[[[[-79.941194,-6.1567],[-79.940576,-6.159748],[-79.938087,-6.159254],[-79.938712,-6.156207],[-79.941194,-6.1567]]],[[[-79.955692,-6.030576],[-79.953471,-6.030124],[-79.954087,-6.026706],[-79.956313,-6.027159],[-79.955692,-6.030576]]]]}},{"type":"Feature","properties":{"CAMPO":"OLMOS","FUNDO":"CHALLAPAMPA","MODULO":"M12","LOTE":"M12T03-66","ACTIVO":true,"PIEZAS":1,"TIPO":"LOTE"},"geometry":{"type":"Polygon","coordinates":[[[-79.938087,-6.159254],[-79.935675,-6.158773],[-79.93505,-6.16182],[-79.937462,-6.162301],[-79.938087,-6.159254]]]}},{"type":"Feature","properties":{"CAMPO":"OLMOS","FUNDO":"CHALLAPAMPA","MODULO":"M12","LOTE":"M12T03-67","ACTIVO":true,"PIEZAS":1,"TIPO":"LOTE"},"geometry":{"type":"Polygon","coordinates":[[[-79.935675,-6.158773],[-79.933276,-6.158294],[-79.932651,-6.161341],[-79.93505,-6.16182],[-79.935675,-6.158773]]]}},{"type":"Feature","properties":{"CAMPO":"OLMOS","FUNDO":"CHALLAPAMPA","MODULO":"M12","LOTE":"M12T03-68","ACTIVO":true,"PIEZAS":2,"TIPO":"LOTE"},"geometry":{"type":"MultiPolygon","coordinates":[[[[-79.940576,-6.159748],[-79.939958,-6.162796],[-79.937462,-6.162301],[-79.938087,-6.159254],[-79.940576,-6.159748]]],[[[-79.956313,-6.027159],[-79.954087,-6.026706],[-79.954703,-6.023288],[-79.956934,-6.023742],[-79.956313,-6.027159]]]]}},{"type":"Feature","properties":{"CAMPO":"OLMOS","FUNDO":"CHALLAPAMPA","MODULO":"M12","LOTE":"M12T04-69","ACTIVO":true,"PIEZAS":1,"TIPO":"LOTE"},"geometry":{"type":"Polygon","coordinates":[[[-79.937462,-6.162301],[-79.93505,-6.16182],[-79.934425,-6.164867],[-79.936837,-6.165348],[-79.937462,-6.162301]]]}},{"type":"Feature","properties":{"CAMPO":"OLMOS","FUNDO":"CHALLAPAMPA","MODULO":"M12","LOTE":"M12T04-70","ACTIVO":true,"PIEZAS":1,"TIPO":"LOTE"},"geometry":{"type":"Polygon","coordinates":[[[-79.93505,-6.16182],[-79.932651,-6.161341],[-79.932026,-6.164388],[-79.934425,-6.164867],[-79.93505,-6.16182]]]}},{"type":"Feature","properties":{"CAMPO":"OLMOS","FUNDO":"CHALLAPAMPA","MODULO":"M12","LOTE":"M12T04-71","ACTIVO":true,"PIEZAS":1,"TIPO":"LOTE"},"geometry":{"type":"Polygon","coordinates":[[[-79.939958,-6.162796],[-79.93934,-6.165844],[-79.936837,-6.165348],[-79.937462,-6.162301],[-79.939958,-6.162796]]]}},{"type":"Feature","properties":{"CAMPO":"OLMOS","FUNDO":"CHALLAPAMPA","MODULO":"M12","LOTE":"M12T04-72","ACTIVO":true,"PIEZAS":1,"TIPO":"LOTE"},"geometry":{"type":"Polygon","coordinates":[[[-79.936837,-6.165348],[-79.934425,-6.164867],[-79.9338,-6.167914],[-79.936212,-6.168395],[-79.936837,-6.165348]]]}},{"type":"Feature","properties":{"CAMPO":"OLMOS","FUNDO":"CHALLAPAMPA","MODULO":"M13","LOTE":"M13T01-73","ACTIVO":true,"PIEZAS":1,"TIPO":"LOTE"},"geometry":{"type":"Polygon","coordinates":[[[-79.934425,-6.164867],[-79.932026,-6.164388],[-79.931401,-6.167435],[-79.9338,-6.167914],[-79.934425,-6.164867]]]}},{"type":"Feature","properties":{"CAMPO":"OLMOS","FUNDO":"CHALLAPAMPA","MODULO":"M13","LOTE":"M13T01-74","ACTIVO":true,"PIEZAS":1,"TIPO":"LOTE"},"geometry":{"type":"Polygon","coordinates":[[[-79.93934,-6.165844],[-79.938722,-6.168892],[-79.936212,-6.168395],[-79.936837,-6.165348],[-79.93934,-6.165844]]]}},{"type":"Feature","properties":{"CAMPO":"OLMOS","FUNDO":"CHALLAPAMPA","MODULO":"M13","LOTE":"M13T01-75","ACTIVO":true,"PIEZAS":2,"TIPO":"LOTE"},"geometry":{"type":"MultiPolygon","coordinates":[[[[-79.956934,-6.023742],[-79.954703,-6.023288],[-79.955319,-6.01987],[-79.957555,-6.020325],[-79.956934,-6.023742]]],[[[-79.936212,-6.168395],[-79.9338,-6.167914],[-79.933175,-6.170961],[-79.935587,-6.171442],[-79.936212,-6.168395]]]]}},{"type":"Feature","properties":{"CAMPO":"OLMOS","FUNDO":"CHALLAPAMPA","MODULO":"M13","LOTE":"M13T01-76","ACTIVO":true,"PIEZAS":2,"TIPO":"LOTE"},"geometry":{"type":"MultiPolygon","coordinates":[[[[-79.9338,-6.167914],[-79.931401,-6.167435],[-79.930776,-6.170482],[-79.933175,-6.170961],[-79.9338,-6.167914]]],[[[-79.957555,-6.020325],[-79.955319,-6.01987],[-79.955935,-6.016452],[-79.958176,-6.016908],[-79.957555,-6.020325]]]]}},{"type":"Feature","properties":{"CAMPO":"OLMOS","FUNDO":"CHALLAPAMPA","MODULO":"M13","LOTE":"M13T02-77","ACTIVO":true,"PIEZAS":1,"TIPO":"LOTE"},"geometry":{"type":"Polygon","coordinates":[[[-79.938722,-6.168892],[-79.938104,-6.17194],[-79.935587,-6.171442],[-79.936212,-6.168395],[-79.938722,-6.168892]]]}},{"type":"Feature","properties":{"CAMPO":"OLMOS","FUNDO":"CHALLAPAMPA","MODULO":"M13","LOTE":"M13T02-78","ACTIVO":true,"PIEZAS":1,"TIPO":"LOTE"},"geometry":{"type":"Polygon","coordinates":[[[-79.935587,-6.171442],[-79.933175,-6.170961],[-79.93255,-6.174008],[-79.934962,-6.174489],[-79.935587,-6.171442]]]}},{"type":"Feature","properties":{"CAMPO":"OLMOS","FUNDO":"CHALLAPAMPA","MODULO":"M13","LOTE":"M13T02-79","ACTIVO":true,"PIEZAS":1,"TIPO":"LOTE"},"geometry":{"type":"Polygon","coordinates":[[[-79.933175,-6.170961],[-79.930776,-6.170482],[-79.930151,-6.173529],[-79.93255,-6.174008],[-79.933175,-6.170961]]]}},{"type":"Feature","properties":{"CAMPO":"OLMOS","FUNDO":"CHALLAPAMPA","MODULO":"M13","LOTE":"M13T02-80","ACTIVO":true,"PIEZAS":2,"TIPO":"LOTE"},"geometry":{"type":"MultiPolygon","coordinates":[[[[-79.938104,-6.17194],[-79.937486,-6.174988],[-79.934962,-6.174489],[-79.935587,-6.171442],[-79.938104,-6.17194]]],[[[-79.958176,-6.016908],[-79.955935,-6.016452],[-79.956551,-6.013034],[-79.958797,-6.013491],[-79.958176,-6.016908]]]]}},{"type":"Feature","properties":{"CAMPO":"OLMOS","FUNDO":"CHALLAPAMPA","MODULO":"M13","LOTE":"M13T03-81","ACTIVO":true,"PIEZAS":1,"TIPO":"LOTE"},"geometry":{"type":"Polygon","coordinates":[[[-79.934962,-6.174489],[-79.93255,-6.174008],[-79.931925,-6.177055],[-79.934337,-6.177536],[-79.934962,-6.174489]]]}},{"type":"Feature","properties":{"CAMPO":"OLMOS","FUNDO":"CHALLAPAMPA","MODULO":"M13","LOTE":"M13T03-82","ACTIVO":true,"PIEZAS":1,"TIPO":"LOTE"},"geometry":{"type":"Polygon","coordinates":[[[-79.93255,-6.174008],[-79.930151,-6.173529],[-79.929526,-6.176576],[-79.931925,-6.177055],[-79.93255,-6.174008]]]}},{"type":"Feature","properties":{"CAMPO":"OLMOS","FUNDO":"CHALLAPAMPA","MODULO":"M13","LOTE":"M13T03-83","ACTIVO":true,"PIEZAS":1,"TIPO":"LOTE"},"geometry":{"type":"Polygon","coordinates":[[[-79.937486,-6.174988],[-79.936868,-6.178036],[-79.934337,-6.177536],[-79.934962,-6.174489],[-79.937486,-6.174988]]]}},{"type":"Feature","properties":{"CAMPO":"OLMOS","FUNDO":"CHALLAPAMPA","MODULO":"M13","LOTE":"M13T03-84","ACTIVO":true,"PIEZAS":1,"TIPO":"LOTE"},"geometry":{"type":"Polygon","coordinates":[[[-79.934337,-6.177536],[-79.931925,-6.177055],[-79.9313,-6.180102],[-79.933712,-6.180583],[-79.934337,-6.177536]]]}},{"type":"Feature","properties":{"CAMPO":"OLMOS","FUNDO":"CHALLAPAMPA","MODULO":"M13","LOTE":"M13T04-85","ACTIVO":true,"PIEZAS":1,"TIPO":"LOTE"},"geometry":{"type":"Polygon","coordinates":[[[-79.931925,-6.177055],[-79.929526,-6.176576],[-79.928901,-6.179623],[-79.9313,-6.180102],[-79.931925,-6.177055]]]}},{"type":"Feature","properties":{"CAMPO":"OLMOS","FUNDO":"CHALLAPAMPA","MODULO":"M13","LOTE":"M13T04-86","ACTIVO":true,"PIEZAS":1,"TIPO":"LOTE"},"geometry":{"type":"Polygon","coordinates":[[[-79.936868,-6.178036],[-79.93625,-6.181084],[-79.933712,-6.180583],[-79.934337,-6.177536],[-79.936868,-6.178036]]]}},{"type":"Feature","properties":{"CAMPO":"OLMOS","FUNDO":"CHALLAPAMPA","MODULO":"M13","LOTE":"M13T04-87","ACTIVO":true,"PIEZAS":1,"TIPO":"LOTE"},"geometry":{"type":"Polygon","coordinates":[[[-79.933712,-6.180583],[-79.9313,-6.180102],[-79.930675,-6.183149],[-79.933087,-6.18363],[-79.933712,-6.180583]]]}},{"type":"Feature","properties":{"CAMPO":"OLMOS","FUNDO":"CHALLAPAMPA","MODULO":"M13","LOTE":"M13T04-88","ACTIVO":true,"PIEZAS":2,"TIPO":"LOTE"},"geometry":{"type":"MultiPolygon","coordinates":[[[[-79.958797,-6.013491],[-79.956551,-6.013034],[-79.957167,-6.009616],[-79.959418,-6.010074],[-79.958797,-6.013491]]],[[[-79.9313,-6.180102],[-79.928901,-6.179623],[-79.928276,-6.18267],[-79.930675,-6.183149],[-79.9313,-6.180102]]]]}},{"type":"Feature","properties":{"CAMPO":"OLMOS","FUNDO":"CHALLAPAMPA","MODULO":"M13","LOTE":"M13T04-89","ACTIVO":true,"PIEZAS":2,"TIPO":"LOTE"},"geometry":{"type":"MultiPolygon","coordinates":[[[[-79.93625,-6.181084],[-79.935632,-6.184132],[-79.933087,-6.18363],[-79.933712,-6.180583],[-79.93625,-6.181084]]],[[[-79.959418,-6.010074],[-79.957167,-6.009616],[-79.957783,-6.006198],[-79.960039,-6.006657],[-79.959418,-6.010074]]]]}},{"type":"Feature","properties":{"CAMPO":"OLMOS","FUNDO":"CHALLAPAMPA","MODULO":"M14","LOTE":"M14T01-90","ACTIVO":true,"PIEZAS":1,"TIPO":"LOTE"},"geometry":{"type":"Polygon","coordinates":[[[-79.933087,-6.18363],[-79.930675,-6.183149],[-79.93005,-6.186196],[-79.932462,-6.186677],[-79.933087,-6.18363]]]}},{"type":"Feature","properties":{"CAMPO":"OLMOS","FUNDO":"CHALLAPAMPA","MODULO":"M14","LOTE":"M14T01-91","ACTIVO":true,"PIEZAS":1,"TIPO":"LOTE"},"geometry":{"type":"Polygon","coordinates":[[[-79.930675,-6.183149],[-79.928276,-6.18267],[-79.927651,-6.185717],[-79.93005,-6.186196],[-79.930675,-6.183149]]]}},{"type":"Feature","properties":{"CAMPO":"OLMOS","FUNDO":"CHALLAPAMPA","MODULO":"M14","LOTE":"M14T01-92","ACTIVO":true,"PIEZAS":1,"TIPO":"LOTE"},"geometry":{"type":"Polygon","coordinates":[[[-79.935632,-6.184132],[-79.935014,-6.18718],[-79.932462,-6.186677],[-79.933087,-6.18363],[-79.935632,-6.184132]]]}},{"type":"Feature","properties":{"CAMPO":"OLMOS","FUNDO":"CHALLAPAMPA","MODULO":"M14","LOTE":"M14T02-93","ACTIVO":true,"PIEZAS":1,"TIPO":"LOTE"},"geometry":{"type":"Polygon","coordinates":[[[-79.932462,-6.186677],[-79.93005,-6.186196],[-79.929425,-6.189243],[-79.931837,-6.189724],[-79.932462,-6.186677]]]}},{"type":"Feature","properties":{"CAMPO":"OLMOS","FUNDO":"CHALLAPAMPA","MODULO":"M14","LOTE":"M14T02-94","ACTIVO":true,"PIEZAS":1,"TIPO":"LOTE"},"geometry":{"type":"Polygon","coordinates":[[[-79.93005,-6.186196],[-79.927651,-6.185717],[-79.927026,-6.188764],[-79.929425,-6.189243],[-79.93005,-6.186196]]]}},{"type":"Feature","properties":{"CAMPO":"OLMOS","FUNDO":"CHALLAPAMPA","MODULO":"M14","LOTE":"M14T03-95","ACTIVO":true,"PIEZAS":1,"TIPO":"LOTE"},"geometry":{"type":"Polygon","coordinates":[[[-79.935014,-6.18718],[-79.934396,-6.190228],[-79.931837,-6.189724],[-79.932462,-6.186677],[-79.935014,-6.18718]]]}},{"type":"Feature","properties":{"CAMPO":"OLMOS","FUNDO":"CHALLAPAMPA","MODULO":"M14","LOTE":"M14T03-96","ACTIVO":true,"PIEZAS":1,"TIPO":"LOTE"},"geometry":{"type":"Polygon","coordinates":[[[-79.931837,-6.189724],[-79.929425,-6.189243],[-79.9288,-6.19229],[-79.931212,-6.192771],[-79.931837,-6.189724]]]}},{"type":"Feature","properties":{"CAMPO":"OLMOS","FUNDO":"CHALLAPAMPA","MODULO":"M14","LOTE":"M14T03-97","ACTIVO":true,"PIEZAS":1,"TIPO":"LOTE"},"geometry":{"type":"Polygon","coordinates":[[[-79.929425,-6.189243],[-79.927026,-6.188764],[-79.926401,-6.191811],[-79.9288,-6.19229],[-79.929425,-6.189243]]]}},{"type":"Feature","properties":{"CAMPO":"OLMOS","FUNDO":"CHALLAPAMPA","MODULO":"M14","LOTE":"M14T04-100","ACTIVO":true,"PIEZAS":2,"TIPO":"LOTE"},"geometry":{"type":"MultiPolygon","coordinates":[[[[-79.960039,-6.006657],[-79.957783,-6.006198],[-79.958399,-6.00278],[-79.96066,-6.00324],[-79.960039,-6.006657]]],[[[-79.931212,-6.192771],[-79.9288,-6.19229],[-79.928175,-6.195337],[-79.930587,-6.195818],[-79.931212,-6.192771]]]]}},{"type":"Feature","properties":{"CAMPO":"OLMOS","FUNDO":"CHALLAPAMPA","MODULO":"M14","LOTE":"M14T04-98","ACTIVO":true,"PIEZAS":1,"TIPO":"LOTE"},"geometry":{"type":"Polygon","coordinates":[[[-79.934396,-6.190228],[-79.933778,-6.193276],[-79.931212,-6.192771],[-79.931837,-6.189724],[-79.934396,-6.190228]]]}},{"type":"Feature","properties":{"CAMPO":"OLMOS","FUNDO":"CHALLAPAMPA","MODULO":"M14","LOTE":"M14T04-99","ACTIVO":true,"PIEZAS":1,"TIPO":"LOTE"},"geometry":{"type":"Polygon","coordinates":[[[-79.933778,-6.193276],[-79.93316,-6.196324],[-79.930587,-6.195818],[-79.931212,-6.192771],[-79.933778,-6.193276]]]}},{"type":"Feature","properties":{"CAMPO":"OLMOS","FUNDO":"PESQUERA","MODULO":"M17","LOTE":"M17T01-105","ACTIVO":true,"PIEZAS":1,"TIPO":"LOTE"},"geometry":{"type":"Polygon","coordinates":[[[-79.727996,-6.165027],[-79.725792,-6.165548],[-79.726313,-6.168066],[-79.728629,-6.167513],[-79.727996,-6.165027]]]}},{"type":"Feature","properties":{"CAMPO":"OLMOS","FUNDO":"PESQUERA","MODULO":"M17","LOTE":"M17T01-106","ACTIVO":true,"PIEZAS":1,"TIPO":"LOTE"},"geometry":{"type":"Polygon","coordinates":[[[-79.725792,-6.165548],[-79.723591,-6.166084],[-79.72412,-6.168608],[-79.726313,-6.168066],[-79.725792,-6.165548]]]}},{"type":"Feature","properties":{"CAMPO":"OLMOS","FUNDO":"PESQUERA","MODULO":"M17","LOTE":"M17T01-107","ACTIVO":true,"PIEZAS":1,"TIPO":"LOTE"},"geometry":{"type":"Polygon","coordinates":[[[-79.723591,-6.166084],[-79.721385,-6.166626],[-79.721918,-6.16915],[-79.72412,-6.168608],[-79.723591,-6.166084]]]}},{"type":"Feature","properties":{"CAMPO":"OLMOS","FUNDO":"PESQUERA","MODULO":"M17","LOTE":"M17T01-108","ACTIVO":true,"PIEZAS":1,"TIPO":"LOTE"},"geometry":{"type":"Polygon","coordinates":[[[-79.721385,-6.166626],[-79.719166,-6.167179],[-79.719703,-6.169699],[-79.721918,-6.16915],[-79.721385,-6.166626]]]}},{"type":"Feature","properties":{"CAMPO":"OLMOS","FUNDO":"PESQUERA","MODULO":"M17","LOTE":"M17T01-109","ACTIVO":true,"PIEZAS":1,"TIPO":"LOTE"},"geometry":{"type":"Polygon","coordinates":[[[-79.719166,-6.167179],[-79.716951,-6.167734],[-79.717491,-6.170251],[-79.719703,-6.169699],[-79.719166,-6.167179]]]}},{"type":"Feature","properties":{"CAMPO":"OLMOS","FUNDO":"PESQUERA","MODULO":"M17","LOTE":"M17T02-110","ACTIVO":true,"PIEZAS":1,"TIPO":"LOTE"},"geometry":{"type":"Polygon","coordinates":[[[-79.728629,-6.167513],[-79.726313,-6.168066],[-79.726841,-6.17058],[-79.729268,-6.170006],[-79.728629,-6.167513]]]}},{"type":"Feature","properties":{"CAMPO":"OLMOS","FUNDO":"PESQUERA","MODULO":"M17","LOTE":"M17T02-111","ACTIVO":true,"PIEZAS":1,"TIPO":"LOTE"},"geometry":{"type":"Polygon","coordinates":[[[-79.726313,-6.168066],[-79.72412,-6.168608],[-79.724653,-6.171127],[-79.726841,-6.17058],[-79.726313,-6.168066]]]}},{"type":"Feature","properties":{"CAMPO":"OLMOS","FUNDO":"PESQUERA","MODULO":"M17","LOTE":"M17T02-112","ACTIVO":true,"PIEZAS":1,"TIPO":"LOTE"},"geometry":{"type":"Polygon","coordinates":[[[-79.72412,-6.168608],[-79.721918,-6.16915],[-79.722453,-6.171671],[-79.724653,-6.171127],[-79.72412,-6.168608]]]}},{"type":"Feature","properties":{"CAMPO":"OLMOS","FUNDO":"PESQUERA","MODULO":"M17","LOTE":"M17T02-113","ACTIVO":true,"PIEZAS":1,"TIPO":"LOTE"},"geometry":{"type":"Polygon","coordinates":[[[-79.721918,-6.16915],[-79.719703,-6.169699],[-79.720241,-6.172219],[-79.722453,-6.171671],[-79.721918,-6.16915]]]}},{"type":"Feature","properties":{"CAMPO":"OLMOS","FUNDO":"PESQUERA","MODULO":"M17","LOTE":"M17T03-114","ACTIVO":true,"PIEZAS":1,"TIPO":"LOTE"},"geometry":{"type":"Polygon","coordinates":[[[-79.719703,-6.169699],[-79.717491,-6.170251],[-79.718031,-6.172769],[-79.720241,-6.172219],[-79.719703,-6.169699]]]}},{"type":"Feature","properties":{"CAMPO":"OLMOS","FUNDO":"PESQUERA","MODULO":"M17","LOTE":"M17T03-115","ACTIVO":true,"PIEZAS":1,"TIPO":"LOTE"},"geometry":{"type":"Polygon","coordinates":[[[-79.729268,-6.170006],[-79.726841,-6.17058],[-79.727373,-6.173094],[-79.729907,-6.172499],[-79.729268,-6.170006]]]}},{"type":"Feature","properties":{"CAMPO":"OLMOS","FUNDO":"PESQUERA","MODULO":"M17","LOTE":"M17T03-116","ACTIVO":true,"PIEZAS":1,"TIPO":"LOTE"},"geometry":{"type":"Polygon","coordinates":[[[-79.726841,-6.17058],[-79.724653,-6.171127],[-79.725188,-6.173646],[-79.727373,-6.173094],[-79.726841,-6.17058]]]}},{"type":"Feature","properties":{"CAMPO":"OLMOS","FUNDO":"PESQUERA","MODULO":"M17","LOTE":"M17T04-117","ACTIVO":true,"PIEZAS":1,"TIPO":"LOTE"},"geometry":{"type":"Polygon","coordinates":[[[-79.724653,-6.171127],[-79.722453,-6.171671],[-79.722989,-6.174192],[-79.725188,-6.173646],[-79.724653,-6.171127]]]}},{"type":"Feature","properties":{"CAMPO":"OLMOS","FUNDO":"PESQUERA","MODULO":"M17","LOTE":"M17T04-118","ACTIVO":true,"PIEZAS":1,"TIPO":"LOTE"},"geometry":{"type":"Polygon","coordinates":[[[-79.722453,-6.171671],[-79.720241,-6.172219],[-79.720779,-6.174739],[-79.722989,-6.174192],[-79.722453,-6.171671]]]}},{"type":"Feature","properties":{"CAMPO":"OLMOS","FUNDO":"PESQUERA","MODULO":"M17","LOTE":"M17T04-119","ACTIVO":true,"PIEZAS":1,"TIPO":"LOTE"},"geometry":{"type":"Polygon","coordinates":[[[-79.720241,-6.172219],[-79.718031,-6.172769],[-79.718572,-6.175286],[-79.720779,-6.174739],[-79.720241,-6.172219]]]}},{"type":"Feature","properties":{"CAMPO":"OLMOS","FUNDO":"PESQUERA","MODULO":"M18","LOTE":"M18T01-120","ACTIVO":true,"PIEZAS":1,"TIPO":"LOTE"},"geometry":{"type":"Polygon","coordinates":[[[-79.729907,-6.172499],[-79.727373,-6.173094],[-79.727906,-6.175609],[-79.730546,-6.174992],[-79.729907,-6.172499]]]}},{"type":"Feature","properties":{"CAMPO":"OLMOS","FUNDO":"PESQUERA","MODULO":"M18","LOTE":"M18T01-121","ACTIVO":true,"PIEZAS":1,"TIPO":"LOTE"},"geometry":{"type":"Polygon","coordinates":[[[-79.727373,-6.173094],[-79.725188,-6.173646],[-79.725724,-6.176165],[-79.727906,-6.175609],[-79.727373,-6.173094]]]}},{"type":"Feature","properties":{"CAMPO":"OLMOS","FUNDO":"PESQUERA","MODULO":"M18","LOTE":"M18T01-122","ACTIVO":true,"PIEZAS":1,"TIPO":"LOTE"},"geometry":{"type":"Polygon","coordinates":[[[-79.725188,-6.173646],[-79.722989,-6.174192],[-79.723526,-6.176713],[-79.725724,-6.176165],[-79.725188,-6.173646]]]}},{"type":"Feature","properties":{"CAMPO":"OLMOS","FUNDO":"PESQUERA","MODULO":"M18","LOTE":"M18T01-123","ACTIVO":true,"PIEZAS":1,"TIPO":"LOTE"},"geometry":{"type":"Polygon","coordinates":[[[-79.722989,-6.174192],[-79.720779,-6.174739],[-79.721317,-6.177259],[-79.723526,-6.176713],[-79.722989,-6.174192]]]}},{"type":"Feature","properties":{"CAMPO":"OLMOS","FUNDO":"PESQUERA","MODULO":"M18","LOTE":"M18T02-124","ACTIVO":true,"PIEZAS":1,"TIPO":"LOTE"},"geometry":{"type":"Polygon","coordinates":[[[-79.720779,-6.174739],[-79.718572,-6.175286],[-79.719112,-6.177804],[-79.721317,-6.177259],[-79.720779,-6.174739]]]}},{"type":"Feature","properties":{"CAMPO":"OLMOS","FUNDO":"PESQUERA","MODULO":"M18","LOTE":"M18T02-125","ACTIVO":true,"PIEZAS":1,"TIPO":"LOTE"},"geometry":{"type":"Polygon","coordinates":[[[-79.730546,-6.174992],[-79.727906,-6.175609],[-79.728439,-6.178124],[-79.731185,-6.177485],[-79.730546,-6.174992]]]}},{"type":"Feature","properties":{"CAMPO":"OLMOS","FUNDO":"PESQUERA","MODULO":"M18","LOTE":"M18T02-126","ACTIVO":true,"PIEZAS":1,"TIPO":"LOTE"},"geometry":{"type":"Polygon","coordinates":[[[-79.727906,-6.175609],[-79.725724,-6.176165],[-79.72626,-6.178685],[-79.728439,-6.178124],[-79.727906,-6.175609]]]}},{"type":"Feature","properties":{"CAMPO":"OLMOS","FUNDO":"PESQUERA","MODULO":"M18","LOTE":"M18T02-127","ACTIVO":true,"PIEZAS":1,"TIPO":"LOTE"},"geometry":{"type":"Polygon","coordinates":[[[-79.725724,-6.176165],[-79.723526,-6.176713],[-79.724064,-6.179233],[-79.72626,-6.178685],[-79.725724,-6.176165]]]}},{"type":"Feature","properties":{"CAMPO":"OLMOS","FUNDO":"PESQUERA","MODULO":"M18","LOTE":"M18T02-128","ACTIVO":true,"PIEZAS":1,"TIPO":"LOTE"},"geometry":{"type":"Polygon","coordinates":[[[-79.723526,-6.176713],[-79.721317,-6.177259],[-79.721856,-6.17978],[-79.724064,-6.179233],[-79.723526,-6.176713]]]}},{"type":"Feature","properties":{"CAMPO":"OLMOS","FUNDO":"PESQUERA","MODULO":"M18","LOTE":"M18T02-129","ACTIVO":true,"PIEZAS":1,"TIPO":"LOTE"},"geometry":{"type":"Polygon","coordinates":[[[-79.721317,-6.177259],[-79.719112,-6.177804],[-79.719652,-6.180322],[-79.721856,-6.17978],[-79.721317,-6.177259]]]}},{"type":"Feature","properties":{"CAMPO":"OLMOS","FUNDO":"PESQUERA","MODULO":"M18","LOTE":"M18T02-130","ACTIVO":true,"PIEZAS":1,"TIPO":"LOTE"},"geometry":{"type":"Polygon","coordinates":[[[-79.731185,-6.177485],[-79.728439,-6.178124],[-79.728972,-6.180639],[-79.731824,-6.179978],[-79.731185,-6.177485]]]}},{"type":"Feature","properties":{"CAMPO":"OLMOS","FUNDO":"PESQUERA","MODULO":"M18","LOTE":"M18T02-131","ACTIVO":true,"PIEZAS":1,"TIPO":"LOTE"},"geometry":{"type":"Polygon","coordinates":[[[-79.728439,-6.178124],[-79.72626,-6.178685],[-79.726797,-6.181204],[-79.728972,-6.180639],[-79.728439,-6.178124]]]}},{"type":"Feature","properties":{"CAMPO":"OLMOS","FUNDO":"PESQUERA","MODULO":"M18","LOTE":"M18T02-134","ACTIVO":true,"PIEZAS":1,"TIPO":"LOTE"},"geometry":{"type":"Polygon","coordinates":[[[-79.726797,-6.181204],[-79.724602,-6.181754],[-79.72514,-6.184274],[-79.727334,-6.183725],[-79.726797,-6.181204]]]}},{"type":"Feature","properties":{"CAMPO":"OLMOS","FUNDO":"PESQUERA","MODULO":"M18","LOTE":"M18T04-132","ACTIVO":true,"PIEZAS":1,"TIPO":"LOTE"},"geometry":{"type":"Polygon","coordinates":[[[-79.72626,-6.178685],[-79.724064,-6.179233],[-79.724602,-6.181754],[-79.726797,-6.181204],[-79.72626,-6.178685]]]}},{"type":"Feature","properties":{"CAMPO":"OLMOS","FUNDO":"PESQUERA","MODULO":"M18","LOTE":"M18T04-133","ACTIVO":true,"PIEZAS":1,"TIPO":"LOTE"},"geometry":{"type":"Polygon","coordinates":[[[-79.724064,-6.179233],[-79.721856,-6.17978],[-79.722395,-6.182301],[-79.724602,-6.181754],[-79.724064,-6.179233]]]}},{"type":"Feature","properties":{"CAMPO":"OLMOS","FUNDO":"PESQUERA","MODULO":"M18","LOTE":"M18T04-135","ACTIVO":true,"PIEZAS":1,"TIPO":"LOTE"},"geometry":{"type":"Polygon","coordinates":[[[-79.724602,-6.181754],[-79.722395,-6.182301],[-79.722935,-6.184821],[-79.72514,-6.184274],[-79.724602,-6.181754]]]}},{"type":"Feature","properties":{"CAMPO":"OLMOS","FUNDO":"PESQUERA","MODULO":"M19","LOTE":"M19T01-136","ACTIVO":true,"PIEZAS":1,"TIPO":"LOTE"},"geometry":{"type":"Polygon","coordinates":[[[-79.731824,-6.179978],[-79.728972,-6.180639],[-79.729505,-6.183154],[-79.732463,-6.182471],[-79.731824,-6.179978]]]}},{"type":"Feature","properties":{"CAMPO":"OLMOS","FUNDO":"PESQUERA","MODULO":"M19","LOTE":"M19T01-137","ACTIVO":true,"PIEZAS":1,"TIPO":"LOTE"},"geometry":{"type":"Polygon","coordinates":[[[-79.728972,-6.180639],[-79.726797,-6.181204],[-79.727334,-6.183725],[-79.729505,-6.183154],[-79.728972,-6.180639]]]}},{"type":"Feature","properties":{"CAMPO":"OLMOS","FUNDO":"PESQUERA","MODULO":"M19","LOTE":"M19T01-138","ACTIVO":true,"PIEZAS":1,"TIPO":"LOTE"},"geometry":{"type":"Polygon","coordinates":[[[-79.732463,-6.182471],[-79.729505,-6.183154],[-79.730038,-6.185668],[-79.733102,-6.184964],[-79.732463,-6.182471]]]}},{"type":"Feature","properties":{"CAMPO":"OLMOS","FUNDO":"PESQUERA","MODULO":"M19","LOTE":"M19T02-139","ACTIVO":true,"PIEZAS":1,"TIPO":"LOTE"},"geometry":{"type":"Polygon","coordinates":[[[-79.729505,-6.183154],[-79.727334,-6.183725],[-79.727871,-6.186244],[-79.730038,-6.185668],[-79.729505,-6.183154]]]}},{"type":"Feature","properties":{"CAMPO":"OLMOS","FUNDO":"PESQUERA","MODULO":"M19","LOTE":"M19T02-140","ACTIVO":true,"PIEZAS":1,"TIPO":"LOTE"},"geometry":{"type":"Polygon","coordinates":[[[-79.733102,-6.184964],[-79.730038,-6.185668],[-79.730571,-6.188183],[-79.733741,-6.187457],[-79.733102,-6.184964]]]}},{"type":"Feature","properties":{"CAMPO":"OLMOS","FUNDO":"PESQUERA","MODULO":"M19","LOTE":"M19T02-141","ACTIVO":true,"PIEZAS":1,"TIPO":"LOTE"},"geometry":{"type":"Polygon","coordinates":[[[-79.730038,-6.185668],[-79.727871,-6.186244],[-79.728408,-6.188764],[-79.730571,-6.188183],[-79.730038,-6.185668]]]}},{"type":"Feature","properties":{"CAMPO":"OLMOS","FUNDO":"PESQUERA","MODULO":"M19","LOTE":"M19T03-142","ACTIVO":true,"PIEZAS":1,"TIPO":"LOTE"},"geometry":{"type":"Polygon","coordinates":[[[-79.733741,-6.187457],[-79.730571,-6.188183],[-79.731104,-6.190698],[-79.73438,-6.18995],[-79.733741,-6.187457]]]}},{"type":"Feature","properties":{"CAMPO":"OLMOS","FUNDO":"PESQUERA","MODULO":"M19","LOTE":"M19T03-143","ACTIVO":true,"PIEZAS":1,"TIPO":"LOTE"},"geometry":{"type":"Polygon","coordinates":[[[-79.730571,-6.188183],[-79.728408,-6.188764],[-79.728945,-6.191283],[-79.731104,-6.190698],[-79.730571,-6.188183]]]}},{"type":"Feature","properties":{"CAMPO":"OLMOS","FUNDO":"PESQUERA","MODULO":"M19","LOTE":"M19T03-144","ACTIVO":true,"PIEZAS":1,"TIPO":"LOTE"},"geometry":{"type":"Polygon","coordinates":[[[-79.73438,-6.18995],[-79.731104,-6.190698],[-79.731637,-6.193213],[-79.735019,-6.192443],[-79.73438,-6.18995]]]}},{"type":"Feature","properties":{"CAMPO":"OLMOS","FUNDO":"PESQUERA","MODULO":"M19","LOTE":"M19T04-145","ACTIVO":true,"PIEZAS":1,"TIPO":"LOTE"},"geometry":{"type":"Polygon","coordinates":[[[-79.731104,-6.190698],[-79.728945,-6.191283],[-79.729482,-6.193803],[-79.731637,-6.193213],[-79.731104,-6.190698]]]}},{"type":"Feature","properties":{"CAMPO":"OLMOS","FUNDO":"PESQUERA","MODULO":"M19","LOTE":"M19T04-146","ACTIVO":true,"PIEZAS":1,"TIPO":"LOTE"},"geometry":{"type":"Polygon","coordinates":[[[-79.735019,-6.192443],[-79.731637,-6.193213],[-79.73217,-6.195728],[-79.735658,-6.194936],[-79.735019,-6.192443]]]}},{"type":"Feature","properties":{"CAMPO":"OLMOS","FUNDO":"PESQUERA","MODULO":"M19","LOTE":"M19T04-147","ACTIVO":true,"PIEZAS":1,"TIPO":"LOTE"},"geometry":{"type":"Polygon","coordinates":[[[-79.731637,-6.193213],[-79.729482,-6.193803],[-79.730019,-6.196322],[-79.73217,-6.195728],[-79.731637,-6.193213]]]}},{"type":"Feature","properties":{"CAMPO":"OLMOS","FUNDO":"PESQUERA","MODULO":"M19","LOTE":"M19T04-148","ACTIVO":true,"PIEZAS":1,"TIPO":"LOTE"},"geometry":{"type":"Polygon","coordinates":[[[-79.735658,-6.194936],[-79.73217,-6.195728],[-79.732703,-6.198243],[-79.736297,-6.197429],[-79.735658,-6.194936]]]}},{"type":"Feature","properties":{"CAMPO":"OLMOS","FUNDO":"PESQUERA","MODULO":"M20","LOTE":"M20T01-149","ACTIVO":true,"PIEZAS":1,"TIPO":"LOTE"},"geometry":{"type":"Polygon","coordinates":[[[-79.73217,-6.195728],[-79.730019,-6.196322],[-79.730556,-6.198842],[-79.732703,-6.198243],[-79.73217,-6.195728]]]}},{"type":"Feature","properties":{"CAMPO":"OLMOS","FUNDO":"PESQUERA","MODULO":"M20","LOTE":"M20T01-150","ACTIVO":true,"PIEZAS":1,"TIPO":"LOTE"},"geometry":{"type":"Polygon","coordinates":[[[-79.736297,-6.197429],[-79.732703,-6.198243],[-79.733236,-6.200758],[-79.736936,-6.199922],[-79.736297,-6.197429]]]}},{"type":"Feature","properties":{"CAMPO":"OLMOS","FUNDO":"PESQUERA","MODULO":"M20","LOTE":"M20T01-152","ACTIVO":true,"PIEZAS":1,"TIPO":"LOTE"},"geometry":{"type":"Polygon","coordinates":[[[-79.736936,-6.199922],[-79.733236,-6.200758],[-79.733769,-6.203273],[-79.737575,-6.202415],[-79.736936,-6.199922]]]}},{"type":"Feature","properties":{"CAMPO":"OLMOS","FUNDO":"PESQUERA","MODULO":"M20","LOTE":"M20T02-153","ACTIVO":true,"PIEZAS":1,"TIPO":"LOTE"},"geometry":{"type":"Polygon","coordinates":[[[-79.733236,-6.200758],[-79.731093,-6.201361],[-79.73163,-6.203881],[-79.733769,-6.203273],[-79.733236,-6.200758]]]}},{"type":"Feature","properties":{"CAMPO":"OLMOS","FUNDO":"PESQUERA","MODULO":"M20","LOTE":"M20T02-154","ACTIVO":true,"PIEZAS":1,"TIPO":"LOTE"},"geometry":{"type":"Polygon","coordinates":[[[-79.737575,-6.202415],[-79.733769,-6.203273],[-79.734302,-6.205788],[-79.738214,-6.204908],[-79.737575,-6.202415]]]}},{"type":"Feature","properties":{"CAMPO":"OLMOS","FUNDO":"PESQUERA","MODULO":"M20","LOTE":"M20T02-155","ACTIVO":true,"PIEZAS":1,"TIPO":"LOTE"},"geometry":{"type":"Polygon","coordinates":[[[-79.733769,-6.203273],[-79.73163,-6.203881],[-79.732167,-6.2064],[-79.734302,-6.205788],[-79.733769,-6.203273]]]}},{"type":"Feature","properties":{"CAMPO":"OLMOS","FUNDO":"PESQUERA","MODULO":"M20","LOTE":"M20T02-156","ACTIVO":true,"PIEZAS":1,"TIPO":"LOTE"},"geometry":{"type":"Polygon","coordinates":[[[-79.738214,-6.204908],[-79.734302,-6.205788],[-79.734835,-6.208303],[-79.738853,-6.207401],[-79.738214,-6.204908]]]}},{"type":"Feature","properties":{"CAMPO":"OLMOS","FUNDO":"PESQUERA","MODULO":"M20","LOTE":"M20T03-151","ACTIVO":true,"PIEZAS":1,"TIPO":"LOTE"},"geometry":{"type":"Polygon","coordinates":[[[-79.732703,-6.198243],[-79.730556,-6.198842],[-79.731093,-6.201361],[-79.733236,-6.200758],[-79.732703,-6.198243]]]}},{"type":"Feature","properties":{"CAMPO":"OLMOS","FUNDO":"PESQUERA","MODULO":"M20","LOTE":"M20T03-157","ACTIVO":true,"PIEZAS":1,"TIPO":"LOTE"},"geometry":{"type":"Polygon","coordinates":[[[-79.734302,-6.205788],[-79.732167,-6.2064],[-79.732704,-6.20892],[-79.734835,-6.208303],[-79.734302,-6.205788]]]}},{"type":"Feature","properties":{"CAMPO":"OLMOS","FUNDO":"PESQUERA","MODULO":"M20","LOTE":"M20T03-158","ACTIVO":true,"PIEZAS":1,"TIPO":"LOTE"},"geometry":{"type":"Polygon","coordinates":[[[-79.738853,-6.207401],[-79.734835,-6.208303],[-79.735368,-6.210818],[-79.739492,-6.209894],[-79.738853,-6.207401]]]}},{"type":"Feature","properties":{"CAMPO":"OLMOS","FUNDO":"PESQUERA","MODULO":"M20","LOTE":"M20T03-159","ACTIVO":true,"PIEZAS":1,"TIPO":"LOTE"},"geometry":{"type":"Polygon","coordinates":[[[-79.734835,-6.208303],[-79.732704,-6.20892],[-79.733241,-6.211439],[-79.735368,-6.210818],[-79.734835,-6.208303]]]}},{"type":"Feature","properties":{"CAMPO":"OLMOS","FUNDO":"PESQUERA","MODULO":"M20","LOTE":"M20T03-160","ACTIVO":true,"PIEZAS":1,"TIPO":"LOTE"},"geometry":{"type":"Polygon","coordinates":[[[-79.739492,-6.209894],[-79.735368,-6.210818],[-79.735901,-6.213333],[-79.740131,-6.212387],[-79.739492,-6.209894]]]}},{"type":"Feature","properties":{"CAMPO":"OLMOS","FUNDO":"PESQUERA","MODULO":"M20","LOTE":"M20T04-161","ACTIVO":true,"PIEZAS":1,"TIPO":"LOTE"},"geometry":{"type":"Polygon","coordinates":[[[-79.735368,-6.210818],[-79.733241,-6.211439],[-79.733778,-6.213959],[-79.735901,-6.213333],[-79.735368,-6.210818]]]}},{"type":"Feature","properties":{"CAMPO":"OLMOS","FUNDO":"PESQUERA","MODULO":"M20","LOTE":"M20T04-162","ACTIVO":true,"PIEZAS":1,"TIPO":"LOTE"},"geometry":{"type":"Polygon","coordinates":[[[-79.740131,-6.212387],[-79.735901,-6.213333],[-79.736434,-6.215848],[-79.74077,-6.21488],[-79.740131,-6.212387]]]}},{"type":"Feature","properties":{"CAMPO":"OLMOS","FUNDO":"PESQUERA","MODULO":"M20","LOTE":"M20T04-163","ACTIVO":true,"PIEZAS":1,"TIPO":"LOTE"},"geometry":{"type":"Polygon","coordinates":[[[-79.735901,-6.213333],[-79.733778,-6.213959],[-79.734315,-6.216478],[-79.736434,-6.215848],[-79.735901,-6.213333]]]}},{"type":"Feature","properties":{"CAMPO":"OLMOS","FUNDO":"PESQUERA","MODULO":"M20","LOTE":"M20T04-164","ACTIVO":true,"PIEZAS":3,"TIPO":"LOTE"},"geometry":{"type":"MultiPolygon","coordinates":[[[[-79.74077,-6.21488],[-79.736434,-6.215848],[-79.736967,-6.218363],[-79.741409,-6.217373],[-79.74077,-6.21488]]],[[[-79.96066,-6.00324],[-79.958399,-6.00278],[-79.959015,-5.999362],[-79.961281,-5.999823],[-79.96066,-6.00324]]],[[[-79.736434,-6.215848],[-79.734315,-6.216478],[-79.734852,-6.218998],[-79.736967,-6.218363],[-79.736434,-6.215848]]]]}}]}